highway,BUILDINGNAME,BLOCK,ROAD,POSTALCODE,XCOORD,YCOORD,LATITUDE,LONGITUDE
CENTRAL EXPRESSWAY,TECK GHEE GRANDEUR,458,ANG MO KIO AVENUE 10,560458,30927.7953127,38733.6948031,1.366568152368012,103.85962684332141
CENTRAL EXPRESSWAY,TECK GHEE GRANDEUR,459,ANG MO KIO AVENUE 10,560459,30900.0113619,38783.6182403,1.3670196448064518,103.85937719020122
CENTRAL EXPRESSWAY,TECK GHEE GRANDEUR,457,ANG MO KIO AVENUE 10,560457,30851.5763528,38637.434836,1.3656976191089927,103.85894195411588
CENTRAL EXPRESSWAY,null,558,ANG MO KIO AVENUE 10,560558,30879.3986834,39249.8558493,1.3712361328426363,103.85919201619355
CENTRAL EXPRESSWAY,null,560,ANG MO KIO AVENUE 10,560560,30879.4345812,39203.4293025,1.3708162677773361,103.85919233425575
CENTRAL EXPRESSWAY,null,564,ANG MO KIO AVENUE 3,560564,30903.0062578,39096.4049507,1.3698483755548956,103.85940413195561
AYER RAJAH EXPRESSWAY,null,610,CLEMENTI WEST STREET 1,120610,20816.7361247,31875.7945256,1.3045470452555883,103.76877361790748
AYER RAJAH EXPRESSWAY,null,605,CLEMENTI WEST STREET 1,120605,20732.8989856,31968.4425234,1.3053849009935499,103.76802028099979
AYER RAJAH EXPRESSWAY,CLEMENTI PEAKS,466A,CLEMENTI AVENUE 1,121466,20644.3305672,32459.3513237,1.3098244832254287,103.76722433658644
AYER RAJAH EXPRESSWAY,CLEMENTI PEAKS,466,CLEMENTI AVENUE 1,120466,20605.5811009,32407.3337657,1.3093540458271262,103.7668761664633
AYER RAJAH EXPRESSWAY,CLEMENTI PEAKS,465A,CLEMENTI AVENUE 1,121465,20693.1179865,32396.3412816,1.3092546546010986,103.76766272974935
AYER RAJAH EXPRESSWAY,CLEMENTI PEAKS,463,CLEMENTI AVENUE 1,120463,20715.4563335,32585.5510485,1.3109658051561897,103.7678634060363
AYER RAJAH EXPRESSWAY,CLEMENTI PEAKS,464B,CLEMENTI AVENUE 1,122464,20727.6256067,32493.953713,1.3101374345807588,103.76797277430971
AYER RAJAH EXPRESSWAY,WEST COAST VISTA,506,WEST COAST DRIVE,120506,19936.8688417,32757.0923945,1.312516969404304,103.76086737712221
AYER RAJAH EXPRESSWAY,null,430,CLEMENTI AVENUE 3,120430,20124.4698956,32842.8712248,1.3132927708574358,103.762553042236
AYER RAJAH EXPRESSWAY,null,431,CLEMENTI AVENUE 3,120431,20122.4845882,32896.1259866,1.3137743872482994,103.7625351897209
AYER RAJAH EXPRESSWAY,null,429,CLEMENTI AVENUE 3,120429,20158.7384895,32800.7874072,1.3129121887086408,103.76286097301913
AYER RAJAH EXPRESSWAY,null,428,CLEMENTI AVENUE 3,120428,20204.1286,32756.5342529,1.31251199063392,103.76326883650665
AYER RAJAH EXPRESSWAY,WEST COAST VISTA,508,WEST COAST DRIVE,120508,20036.3729313,32662.3009089,1.3116597352377404,103.76176149423377
AYER RAJAH EXPRESSWAY,null,505,WEST COAST DRIVE,120505,19838.281539,32730.9522374,1.3122805412549243,103.75998152905572
AYER RAJAH EXPRESSWAY,WEST COAST VISTA,507,WEST COAST DRIVE,120507,19929.604798,32708.7403499,1.3120796890231816,103.76080211874535
AYER RAJAH EXPRESSWAY,null,433,CLEMENTI AVENUE 3,120433,20043.7111618,32922.869203,1.3140162229843284,103.76182736484273
AYER RAJAH EXPRESSWAY,null,434,CLEMENTI AVENUE 3,120434,20019.8119856,32983.9818058,1.3145688971601017,103.76161260319884
CENTRAL EXPRESSWAY,null,132,JALAN BUKIT MERAH,160132,27441.949764,29021.8808535,1.2787380812794333,103.82830428838527
CENTRAL EXPRESSWAY,null,132,JALAN BUKIT MERAH,160132,27442.4559355,29073.5350443,1.2792052236848086,103.82830883561782
CENTRAL EXPRESSWAY,null,140,JALAN BUKIT MERAH,160140,27577.7302439,28957.5328454,1.27815614255882,103.8295243278487
CENTRAL EXPRESSWAY,KIM TIAN VISTA,130,KIM TIAN ROAD,160130,27550.3797609,29205.8211158,1.2804015742684158,103.82927857001748
CENTRAL EXPRESSWAY,null,143,JALAN BUKIT MERAH,160143,27630.8351187,28916.5195458,1.277785233316576,103.83000149546396
CENTRAL EXPRESSWAY,KIM TIAN GREEN,127D,KIM TIAN ROAD,164127,27624.3449971,29285.2393109,1.2811198055507873,103.82994317492818
CENTRAL EXPRESSWAY,TIONG BAHRU ESTATE,82,TIONG POH ROAD,160082,28040.3427776,29519.0948684,1.2832347154329566,103.83368107496179
CENTRAL EXPRESSWAY,TIONG BAHRU ESTATE,81,TIONG POH ROAD,160081,27951.0566145,29448.5457676,1.2825966940937237,103.83287880396556
CENTRAL EXPRESSWAY,TIONG BAHRU ESTATE,65,TIONG POH ROAD,160065,27988.4184147,29530.5380731,1.2833382037832444,103.83321451424085
CENTRAL EXPRESSWAY,TIONG BAHRU ESTATE,74,TIONG POH ROAD,160074,27932.210436,29486.1672066,1.2829369291567219,103.83270946363768
CENTRAL EXPRESSWAY,null,13,YORK HILL,162013,28550.4427811,29885.0439324,1.286544225587529,103.8382645294106
CENTRAL EXPRESSWAY,null,51,CHIN SWEE ROAD,160051,28969.4831599,29980.0047674,1.287403007915331,103.84202977889117
CENTRAL EXPRESSWAY,null,52,CHIN SWEE ROAD,160052,28919.4388323,29944.5957666,1.2870827828495794,103.84158010927487
CENTRAL EXPRESSWAY,null,53,CHIN SWEE ROAD,160053,28906.3926352,30004.3489132,1.2876231697033145,103.84146288562685
CENTRAL EXPRESSWAY,null,54,CHIN SWEE ROAD,160054,28874.4508925,29983.6983089,1.2874364137945749,103.84117587551358
CENTRAL EXPRESSWAY,MOULMEIN VIEW,69,MOULMEIN ROAD,300069,29914.1238675,33468.508511,1.318951762331268,103.85051797259266
CENTRAL EXPRESSWAY,MOULMEIN VIEW,69,MOULMEIN ROAD,300069,29917.7138017,33450.1843645,1.3187860450081361,103.85055022886942
CENTRAL EXPRESSWAY,MULTI STOREY CAR PARK,56,OWEN ROAD,210056,29912.3498913,33305.9361134,1.3174815151799244,103.85050202242896
CENTRAL EXPRESSWAY,KENT HEIGHTS,55,OWEN ROAD,210055,29883.4722371,33271.1144024,1.3171666017250871,103.85024253979918
CENTRAL EXPRESSWAY,KENT HEIGHTS,55A,OWEN ROAD,211055,29942.1383998,33257.6440297,1.3170447767825897,103.85076968439193
CENTRAL EXPRESSWAY,WHAMPOA VIEW,101,WHAMPOA DRIVE,323101,30280.9321186,33630.5410186,1.3204171018757758,103.85381394640238
CENTRAL EXPRESSWAY,WHAMPOA VIEW,104,WHAMPOA DRIVE,323104,30226.8268567,33672.8342907,1.3207995912385937,103.85332778542069
CENTRAL EXPRESSWAY,KIM KEAT BEACON,265,KIM KEAT AVENUE,310265,30979.934548,34876.1358343,1.3316817593255146,103.86009496916195
CENTRAL EXPRESSWAY,KIM KEAT BEACON,265A,KIM KEAT AVENUE,311265,30947.9184974,34911.1782293,1.3319986734227587,103.8598072903192
CENTRAL EXPRESSWAY,null,115,POTONG PASIR AVENUE 1,350115,31281.69893,35494.0581748,1.3372699980605909,103.8628065583661
CENTRAL EXPRESSWAY,null,116,POTONG PASIR AVENUE 1,350116,31260.1946475,35444.9630209,1.3368260012868982,103.86261332459928
CENTRAL EXPRESSWAY,null,117,POTONG PASIR AVENUE 1,350117,31305.5489813,35354.541082,1.3360082525238846,103.86302084981915
CENTRAL EXPRESSWAY,null,118,POTONG PASIR AVENUE 1,350118,31264.6955269,35296.2921331,1.3354814741890977,103.86265375167467
CENTRAL EXPRESSWAY,null,119,POTONG PASIR AVENUE 1,350119,31296.8920352,35194.5661011,1.3345614966537995,103.86294304484392
CENTRAL EXPRESSWAY,null,120,POTONG PASIR AVENUE 1,350120,31346.4074903,35293.203467,1.3354535324679284,103.86338798039782
CENTRAL EXPRESSWAY,null,114,POTONG PASIR AVENUE 1,350114,31337.3234328,35439.3165891,1.3367749285527244,103.86330637092426
BUKIT TIMAH EXPRESSWAY,null,276,BANGKIT ROAD,670276,21587.7954242,39801.3268595,1.3762228794328024,103.7757002655831
BUKIT TIMAH EXPRESSWAY,null,211,PETIR ROAD,670211,21637.3082762,39628.9697913,1.3746641552925465,103.77614521145978
BUKIT TIMAH EXPRESSWAY,SEGAR GARDENS,480A,SEGAR ROAD,671480,21167.2608664,41302.3807033,1.389797770079666,103.77192110976505
BUKIT TIMAH EXPRESSWAY,SEGAR GROVE,488A,SEGAR ROAD,671488,21093.996667,41309.2936687,1.3898602711053465,103.77126277264618
BUKIT TIMAH EXPRESSWAY,SEGAR GROVE,488,SEGAR ROAD,670488,21110.2724277,41272.4096485,1.3895267093141486,103.77140903163253
BUKIT TIMAH EXPRESSWAY,SEGAR GARDENS,480,SEGAR ROAD,670480,21218.1902298,41290.7375786,1.389692485824777,103.77237875218303
BUKIT TIMAH EXPRESSWAY,SEGAR GARDENS,479,SEGAR ROAD,670479,21255.1584857,41286.2580986,1.389651983639509,103.77271094157385
BUKIT TIMAH EXPRESSWAY,SEGAR GARDENS,478A,SEGAR ROAD,671478,21285.2794276,41313.2498455,1.3898960941557315,103.77298159532275
BUKIT TIMAH EXPRESSWAY,SEGAR GARDENS,478,SEGAR ROAD,670478,21273.4072045,41272.9104323,1.3895312764291095,103.77287492348675
BUKIT TIMAH EXPRESSWAY,SEGAR GARDENS,481,SEGAR ROAD,670481,21201.1789873,41264.6417337,1.3894564805231926,103.77222589908392
BUKIT TIMAH EXPRESSWAY,SEGAR GARDENS,477,SEGAR ROAD,670477,21294.5388881,41240.6352878,1.3892393966417078,103.77306481538548
BUKIT TIMAH EXPRESSWAY,SEGAR GARDENS,476A,SEGAR ROAD,671476,21342.2870259,41219.9145223,1.389052016545046,103.77349387395412
BUKIT TIMAH EXPRESSWAY,SEGAR GARDENS,468A,SEGAR ROAD,671468,21368.4448293,41109.3265393,1.3880519050009186,103.77372894703105
BUKIT TIMAH EXPRESSWAY,SEGAR GARDENS,467,SEGAR ROAD,670467,21375.0644071,40991.0696479,1.3869824341566537,103.77378845575619
EAST COAST PARKWAY,MARINE TERRACE WALK,6,MARINE TERRACE,440006,37256.8172085,31791.6409952,1.3037854416862702,103.91649534333106
EAST COAST PARKWAY,MARINE TERRACE BREEZE,14,MARINE TERRACE,440014,37136.223084,31757.4403529,1.3034761792266416,103.91541174034123
EAST COAST PARKWAY,MARINE TERRACE WALK,8,MARINE TERRACE,440008,37213.7772556,31855.6861722,1.304364655922487,103.916108628733
EAST COAST PARKWAY,MARINE TERRACE BREEZE,13,MARINE TERRACE,440013,37154.4473462,31819.9717069,1.3040416848032876,103.9155755119457
EAST COAST PARKWAY,MARINE CRESCENT VILLE,33,MARINE CRESCENT,440033,36777.0948495,31665.9598216,1.302648966066726,103.91218478455741
EAST COAST PARKWAY,MARINE CRESCENT VILLE,29,MARINE CRESCENT,440029,36889.7630906,31688.1745845,1.3028498362792773,103.91319716582392
EAST COAST PARKWAY,MARINE CRESCENT VILLE,35,MARINE CRESCENT,440035,36814.6127721,31745.7339984,1.303370404294331,103.91252192253741
EAST COAST PARKWAY,MARINE DRIVE GARDENS,64,MARINE DRIVE,440064,36476.2380833,31606.6642361,1.302112801814716,103.90948143466196
EAST COAST PARKWAY,MARINE DRIVE VIEW,79,MARINE DRIVE,440079,36290.447751,31542.562004,1.3015331344798702,103.90781200794818
EAST COAST PARKWAY,MARINE DRIVE VIEW,78,MARINE DRIVE,440078,36356.7869384,31544.6846069,1.301552312751624,103.90840809582492
EAST COAST PARKWAY,null,89,MARINE PARADE CENTRAL,440089,36139.8255771,31515.7149078,1.3012903788471717,103.90645859323624
KALLANG PAYA LEBAR EXPRESSWAY,MACPHERSON VIEW,81,MACPHERSON LANE,360081,33895.9123575,34930.1018332,1.3321693820986475,103.88629667673281
KALLANG PAYA LEBAR EXPRESSWAY,BALAM GARDENS,19,BALAM ROAD,370019,34019.3447108,34849.3372577,1.331438951978333,103.88740576979369
KALLANG PAYA LEBAR EXPRESSWAY,BALAM GARDENS,21,BALAM ROAD,370021,33971.1901648,34824.2559957,1.3312121355415292,103.88697306939555
KALLANG PAYA LEBAR EXPRESSWAY,MACPHERSON VIEW,83,MACPHERSON LANE,360083,33809.2425891,34861.5958516,1.3315498552515974,103.88551788717108
KALLANG PAYA LEBAR EXPRESSWAY,null,82A,MACPHERSON LANE,361082,33829.0454175,34900.0202397,1.331897347861584,103.88569583399246
KALLANG PAYA LEBAR EXPRESSWAY,BALAM GARDENS,23,BALAM ROAD,370023,33922.623611,34799.1896255,1.3309854537811476,103.88653666695754
KALLANG PAYA LEBAR EXPRESSWAY,MACPHERSON VIEW,83,MACPHERSON LANE,360083,33797.9437022,34887.960113,1.3317882863528632,103.88541636535767
KALLANG PAYA LEBAR EXPRESSWAY,MACPHERSON VIEW,82,MACPHERSON LANE,360082,33820.6162078,34942.6994891,1.332283325327923,103.88562010095451
KALLANG PAYA LEBAR EXPRESSWAY,MACPHERSON VIEW,82,MACPHERSON LANE,360082,33804.1172206,34922.2312797,1.3320982213329355,103.88547184439236
KALLANG PAYA LEBAR EXPRESSWAY,null,27A,BALAM ROAD,371027,33839.3868071,34732.5934024,1.3303831975043754,103.88578872517797
KALLANG PAYA LEBAR EXPRESSWAY,BALAM GARDENS,27,BALAM ROAD,370027,33888.0324511,34725.5522521,1.3303195104719923,103.88622583193045
KALLANG PAYA LEBAR EXPRESSWAY,BALAM GARDENS,31,BALAM ROAD,370031,33797.0169268,34655.0934105,1.3296823234314858,103.88540799359573
KALLANG PAYA LEBAR EXPRESSWAY,null,31A,CIRCUIT ROAD,379497,33803.9276523,34599.6028738,1.3291804855577027,103.88547007975606
KALLANG PAYA LEBAR EXPRESSWAY,null,77,CIRCUIT ROAD,370077,33790.5542885,34530.6123018,1.3285565620608648,103.88534989966553
KALLANG PAYA LEBAR EXPRESSWAY,null,78,CIRCUIT ROAD,370078,33776.1342275,34455.8644264,1.3278805717589022,103.8852203134094
KALLANG PAYA LEBAR EXPRESSWAY,null,12,MERPATI ROAD,370012,33680.5809271,34439.30905,1.3277308688401617,103.88436171175316
KALLANG PAYA LEBAR EXPRESSWAY,null,13,MERPATI ROAD,370013,33611.8507203,34444.8808713,1.3277812711494894,103.88374413436189
KALLANG PAYA LEBAR EXPRESSWAY,MACPHERSON GARDEN,47,CIRCUIT ROAD,370047,33829.9280622,34223.0721529,1.3257752714556459,103.88570363611414
KALLANG PAYA LEBAR EXPRESSWAY,MACPHERSON GARDEN,49,CIRCUIT ROAD,370049,33819.5927262,34151.9867943,1.3251324028682423,103.88561075407489
KALLANG PAYA LEBAR EXPRESSWAY,MACPHERSON GARDEN,48,CIRCUIT ROAD,370048,33824.069361,34182.7180598,1.3254103245892703,103.88565098487004
KALLANG PAYA LEBAR EXPRESSWAY,MACPHERSON GARDEN,50,CIRCUIT ROAD,370050,33815.2119803,34124.5729906,1.324884483065615,103.88557138553136
KALLANG PAYA LEBAR EXPRESSWAY,null,124,PAYA LEBAR WAY,381124,33611.3007208,33926.0076018,1.323088766816833,103.88373909743923
KALLANG PAYA LEBAR EXPRESSWAY,null,123,PAYA LEBAR WAY,381123,33555.2240446,33889.2168071,1.32275605425738,103.88323521219077
KALLANG PAYA LEBAR EXPRESSWAY,null,122,PAYA LEBAR WAY,381122,33469.307495,33872.0008925,1.3226003751722375,103.88246320357483
KALLANG PAYA LEBAR EXPRESSWAY,null,126,ALJUNIED ROAD,380126,33431.1607551,33985.4465062,1.3236263436123412,103.8821204550398
KALLANG PAYA LEBAR EXPRESSWAY,null,125,ALJUNIED ROAD,380125,33390.1836258,33946.0499407,1.3232700623971094,103.88175224685818
KALLANG PAYA LEBAR EXPRESSWAY,null,121,PAYA LEBAR WAY,381121,33513.508104,33797.3240257,1.321925016304109,103.88286035597224
KALLANG PAYA LEBAR EXPRESSWAY,UPPER BOON KENG RIVERVIEW,39,UPPER BOON KENG ROAD,380039,32552.6537153,33443.3081142,1.3187235805296271,103.87422652207445
KALLANG PAYA LEBAR EXPRESSWAY,UPPER BOON KENG RIVERVIEW,38,UPPER BOON KENG ROAD,380038,32552.2434025,33367.8109246,1.3180408108562742,103.87422282406389
KALLANG PAYA LEBAR EXPRESSWAY,SIMS VISTA,41,SIMS DRIVE,380041,32700.0887008,33236.728853,1.31685532892229,103.87555126980803
KALLANG PAYA LEBAR EXPRESSWAY,null,19,UPPER BOON KENG ROAD,380019,32479.56053,33038.9416237,1.315066644488136,103.87356968355412
KALLANG PAYA LEBAR EXPRESSWAY,KALLANG BREEZE,22,LORONG 3 GEYLANG,380022,32562.5125425,32979.6316004,1.3145302535117431,103.87431504023486
KALLANG PAYA LEBAR EXPRESSWAY,KALLANG BREEZE,20B,LORONG 3 GEYLANG,383020,32515.4332968,32991.1000184,1.3146339767596105,103.87389201136978
KALLANG PAYA LEBAR EXPRESSWAY,KALLANG BREEZE,20A,LORONG 3 GEYLANG,382020,32551.6374375,32935.6538545,1.3141325360161618,103.87421731551683
KALLANG PAYA LEBAR EXPRESSWAY,KALLANG BREEZE,20,LORONG 3 GEYLANG,381020,32560.2720457,32894.944385,1.313764372759262,103.8742948957754
KALLANG PAYA LEBAR EXPRESSWAY,KALLANG BREEZE,21,LORONG 3 GEYLANG,380021,32512.8459896,32950.3008951,1.3142650043641293,103.8738687571716
KALLANG PAYA LEBAR EXPRESSWAY,null,114A,LORONG 3 GEYLANG,382114,32576.5807078,32747.2123798,1.3124283345659338,103.87444141538025
KALLANG PAYA LEBAR EXPRESSWAY,MACPHERSON GARDEN,52,CIRCUIT ROAD,370052,33803.5872282,34049.8275366,1.3242085141168145,103.88546691678589
KALLANG PAYA LEBAR EXPRESSWAY,MACPHERSON GARDEN,51,CIRCUIT ROAD,370051,33808.8904211,34084.3201439,1.3245204519166194,103.88551457532337
KALLANG PAYA LEBAR EXPRESSWAY,MACPHERSON GARDEN,43,CIRCUIT ROAD,370043,33812.2608519,34301.249512,1.3264822829050527,103.88554490153248
KALLANG PAYA LEBAR EXPRESSWAY,null,39,CIRCUIT ROAD,370039,33827.4677896,34406.037998,1.327429949581462,103.88568156401574
KALLANG PAYA LEBAR EXPRESSWAY,null,35,CIRCUIT ROAD,370035,33864.050492,34597.2280478,1.3291589969449904,103.88601031612322
KALLANG PAYA LEBAR EXPRESSWAY,BALAM GARDENS,33,BALAM ROAD,370033,33878.3178509,34665.8686614,1.329779755327259,103.88613852938622
KALLANG PAYA LEBAR EXPRESSWAY,BALAM GARDENS,28,BALAM ROAD,370028,33927.3589462,34743.405671,1.3304809627510363,103.88657920576422
KRANJI EXPRESSWAY,SEGAR GARDENS,478A,SEGAR ROAD,671478,21285.2794276,41313.2498455,1.3898960941557315,103.77298159532275
KRANJI EXPRESSWAY,SEGAR GARDENS,479,SEGAR ROAD,670479,21255.1584857,41286.2580986,1.389651983639509,103.77271094157385
KRANJI EXPRESSWAY,SEGAR GARDENS,478,SEGAR ROAD,670478,21273.4072045,41272.9104323,1.3895312764291095,103.77287492348675
KRANJI EXPRESSWAY,SEGAR GARDENS,480A,SEGAR ROAD,671480,21167.2608664,41302.3807033,1.389797770079666,103.77192110976505
KRANJI EXPRESSWAY,SEGAR GARDENS,480,SEGAR ROAD,670480,21218.1902298,41290.7375786,1.389692485824777,103.77237875218303
KRANJI EXPRESSWAY,SEGAR GROVE,488A,SEGAR ROAD,671488,21093.996667,41309.2936687,1.3898602711053465,103.77126277264618
KRANJI EXPRESSWAY,SEGAR GROVE,488,SEGAR ROAD,670488,21110.2724277,41272.4096485,1.3895267093141486,103.77140903163253
KRANJI EXPRESSWAY,SEGAR PALMVIEW,550,SEGAR ROAD,670550,20650.8582211,41321.5108258,1.3899706499350226,103.7672808280364
KRANJI EXPRESSWAY,SENJA VALLEY,646,SENJA CLOSE,670646,20262.134618,41283.8197401,1.3896296846188134,103.76378785600114
KRANJI EXPRESSWAY,SENJA RIDGES,638,SENJA CLOSE,670638,19933.0775346,41206.517489,1.3889305018845712,103.76083104572676
KRANJI EXPRESSWAY,SENJA RIDGES,639,SENJA CLOSE,670639,19976.7004489,41222.8565401,1.3890782783536368,103.76122302663804
KRANJI EXPRESSWAY,null,707,CHOA CHU KANG STREET 53,680707,18411.175497,41392.779003,1.3906145203252642,103.74715552820663
KRANJI EXPRESSWAY,null,706,CHOA CHU KANG STREET 53,680706,18378.7683841,41365.5567654,1.390368321739446,103.74686433425752
KRANJI EXPRESSWAY,null,705,CHOA CHU KANG STREET 53,680705,18296.4178873,41364.9992897,1.3903632527466923,103.74612435179283
KRANJI EXPRESSWAY,null,704,CHOA CHU KANG STREET 53,680704,18251.3595441,41375.5599405,1.3904587442876606,103.74571946435599
KRANJI EXPRESSWAY,null,502,CHOA CHU KANG STREET 51,680502,17989.3610272,41226.1027813,1.3891070199195608,103.74336525704119
KRANJI EXPRESSWAY,MULTI STOREY CAR PARK,502A,CHOA CHU KANG STREET 51,681502,17943.8441544,41182.7246139,1.3887147081146078,103.74295626803358
KRANJI EXPRESSWAY,null,503,CHOA CHU KANG STREET 51,680503,17873.3319806,41137.443105,1.3883051744409751,103.74232267800376
KRANJI EXPRESSWAY,null,440,CHOA CHU KANG AVENUE 4,680440,17544.4693084,40600.9619505,1.383453321380257,103.73936778780103
KRANJI EXPRESSWAY,null,438,CHOA CHU KANG AVENUE 4,680438,17599.7762395,40691.6101729,1.3842731300879423,103.73986472955258
KRANJI EXPRESSWAY,MULTI STOREY CAR PARK,445A,CHOA CHU KANG AVENUE 4,681445,17240.4889165,40354.232118,1.381221877889559,103.73663638865915
KRANJI EXPRESSWAY,null,445,CHOA CHU KANG AVENUE 4,680445,17243.4095348,40408.0768937,1.3817088311404442,103.73666261287552
KRANJI EXPRESSWAY,null,452,CHOA CHU KANG AVENUE 4,680452,17095.3237877,40253.5513,1.3803113041853714,103.73533201083242
KRANJI EXPRESSWAY,null,453,CHOA CHU KANG AVENUE 4,680453,17047.9093544,40216.70118,1.3799780276783307,103.73490597125986
KRANJI EXPRESSWAY,null,451,CHOA CHU KANG AVENUE 4,680451,17130.8639093,40224.8875195,1.3800520928143327,103.73565137533281
KRANJI EXPRESSWAY,null,439,CHOA CHU KANG AVENUE 4,680439,17591.1713847,40630.9052496,1.383724134175087,103.73978743002642
KRANJI EXPRESSWAY,SEGAR PALMVIEW,550B,SEGAR ROAD,672550,20669.3512932,41279.551682,1.38959119141076,103.76744701310386
KRANJI EXPRESSWAY,SEGAR GARDENS,477,SEGAR ROAD,670477,21294.5388881,41240.6352878,1.3892393966417078,103.77306481538548
KRANJI EXPRESSWAY,SEGAR GARDENS,476A,SEGAR ROAD,671476,21342.2870259,41219.9145223,1.389052016545046,103.77349387395412
PAN ISLAND EXPRESSWAY,null,346,TAMPINES STREET 33,520346,42384.3086917,37038.9219286,1.3512379158622574,103.96257061400914
PAN ISLAND EXPRESSWAY,null,342,TAMPINES STREET 33,520342,42298.3394758,37028.7211035,1.3511457046928517,103.96179812314817
PAN ISLAND EXPRESSWAY,null,341,TAMPINES STREET 33,520341,42224.534327,37028.716866,1.3511457015677049,103.96113493872447
PAN ISLAND EXPRESSWAY,MULTI STOREY CAR PARK,340A,TAMPINES STREET 33,521340,42149.4341625,37059.8389214,1.3514271932959416,103.96046013240903
PAN ISLAND EXPRESSWAY,null,340,TAMPINES STREET 33,520340,42074.6039279,37028.7082396,1.3511456944937246,103.95978772229246
PAN ISLAND EXPRESSWAY,null,339,TAMPINES STREET 33,520339,42000.7988396,37028.7040021,1.351145690816305,103.95912453836044
PAN ISLAND EXPRESSWAY,null,338,TAMPINES STREET 33,520338,42058.9150936,37114.1441336,1.351918351814679,103.95964678842596
PAN ISLAND EXPRESSWAY,null,322,TAMPINES STREET 33,520322,41889.8004227,36998.8723011,1.3508759559290724,103.95812713579153
PAN ISLAND EXPRESSWAY,null,321,TAMPINES STREET 33,520321,41821.7539999,36979.2915187,1.3506989062380135,103.95751568803809
PAN ISLAND EXPRESSWAY,null,320,TAMPINES STREET 33,520320,41770.1358885,36979.6108156,1.3507018176437315,103.95705186787895
PAN ISLAND EXPRESSWAY,null,289,TAMPINES STREET 22,520289,41579.3198602,36862.3204113,1.349641174588638,103.95533721619233
PAN ISLAND EXPRESSWAY,null,292,TAMPINES STREET 22,520292,41628.1101549,36922.3009915,1.350183594208271,103.9557756538076
PAN ISLAND EXPRESSWAY,null,291,TAMPINES STREET 22,520291,41562.0403223,36904.4844391,1.3500224980260316,103.95518196801024
PAN ISLAND EXPRESSWAY,null,289,TAMPINES STREET 22,520289,41575.8408581,36874.2821368,1.3497493535113223,103.95530596063116
PAN ISLAND EXPRESSWAY,null,288,TAMPINES STREET 22,520288,41508.9178013,36775.1393865,1.3488527740309368,103.95470457177407
PAN ISLAND EXPRESSWAY,null,134,SIMEI STREET 1,520134,41613.9612951,36697.2822627,1.3481486159440317,103.95564841603564
PAN ISLAND EXPRESSWAY,null,287,TAMPINES STREET 22,520287,41458.3332508,36810.6947026,1.3491743457156282,103.95425005481404
PAN ISLAND EXPRESSWAY,null,114,SIMEI STREET 1,520114,41034.0686786,36221.8348326,1.3438491051659944,103.95043752565735
PAN ISLAND EXPRESSWAY,null,116,SIMEI STREET 1,520116,41110.8873381,36192.5830057,1.343584529197256,103.95112777386831
PAN ISLAND EXPRESSWAY,null,112,SIMEI STREET 1,520112,40936.3683792,36140.0575812,1.3431095844729948,103.94955959597233
PAN ISLAND EXPRESSWAY,MULTI STOREY CAR PARK,115,SIMEI STREET 1,520115,41034.7913872,36149.2868343,1.3431930079015133,103.95044398837845
PAN ISLAND EXPRESSWAY,null,117,SIMEI STREET 1,520117,41131.7820537,36303.2721444,1.34458555119823,103.95131557320748
PAN ISLAND EXPRESSWAY,null,127,TAMPINES STREET 11,521127,41057.4424025,36396.8243679,1.3454316348794877,103.95064762787925
PAN ISLAND EXPRESSWAY,null,124,TAMPINES STREET 11,521124,40962.369001,36369.4695263,1.3451842891109524,103.94979332509445
PAN ISLAND EXPRESSWAY,null,111,SIMEI STREET 1,520111,40930.1320849,36062.9588823,1.3424123353415134,103.94950352629506
PAN ISLAND EXPRESSWAY,TAMPINES GREENOPAL,965C,TAMPINES STREET 96,523965,39814.5005454,35427.1565174,1.3366628328763537,103.93947867631091
PAN ISLAND EXPRESSWAY,LONGVALE,771,BEDOK RESERVOIR VIEW,470771,39746.3486992,35346.5697058,1.3359340621329507,103.93886626228554
PAN ISLAND EXPRESSWAY,MULTI STOREY CAR PARK,769A,BEDOK RESERVOIR VIEW,471769,39690.6525824,35310.2084137,1.3356052456351284,103.93836578732072
PAN ISLAND EXPRESSWAY,PEARL GARDEN,100,BEDOK NORTH AVENUE 4,460100,39764.880242,35172.0688774,1.3343559340081985,103.93903271124115
PAN ISLAND EXPRESSWAY,LONGVALE,770,BEDOK RESERVOIR VIEW,470770,39701.2398388,35345.5704083,1.3359250423407392,103.93846093336576
PAN ISLAND EXPRESSWAY,PEARL GARDEN,101,BEDOK NORTH AVENUE 4,460101,39641.5706253,35186.2982803,1.3344846671241373,103.93792471096874
PAN ISLAND EXPRESSWAY,LONGVALE,769,BEDOK RESERVOIR VIEW,470769,39640.1005094,35329.4402063,1.3357791903487746,103.93791155585694
PAN ISLAND EXPRESSWAY,LONGVALE,768,BEDOK RESERVOIR VIEW,470768,39574.4541864,35316.7382167,1.3356643434385578,103.9373216818325
PAN ISLAND EXPRESSWAY,MULTI STOREY CAR PARK,765A,BEDOK RESERVOIR VIEW,471765,39465.0527082,35321.3529945,1.335706119443562,103.93633864967542
PAN ISLAND EXPRESSWAY,PEARL GARDEN,106,BEDOK NORTH AVENUE 4,460106,39548.3573124,35183.4506986,1.3344589503418733,103.93708713619426
PAN ISLAND EXPRESSWAY,LONGVALE,768A,BEDOK RESERVOIR VIEW,471768,39576.0284242,35341.1475294,1.335885091639108,103.93733583652647
PAN ISLAND EXPRESSWAY,LONGVALE,767,BEDOK RESERVOIR VIEW,470767,39513.9003305,35337.3953891,1.335851182381696,103.93677757915016
PAN ISLAND EXPRESSWAY,LONGVALE,766,BEDOK RESERVOIR VIEW,470766,39457.9147912,35353.7371038,1.3359989920736262,103.93627452365732
PAN ISLAND EXPRESSWAY,LONGVALE,765,BEDOK RESERVOIR VIEW,470765,39426.2630764,35349.5423547,1.335961068285824,103.93599011355481
PAN ISLAND EXPRESSWAY,null,524,BEDOK NORTH STREET 3,460524,38830.6163375,35225.5949614,1.334840352792006,103.93063784683956
PAN ISLAND EXPRESSWAY,null,525,BEDOK NORTH STREET 3,460525,38697.896102,35199.1387157,1.3346011394177872,103.92944527163752
PAN ISLAND EXPRESSWAY,null,528,BEDOK NORTH STREET 3,460528,38519.0407399,35232.4963038,1.3349028758736705,103.92783816728613
PAN ISLAND EXPRESSWAY,null,529,BEDOK NORTH STREET 3,460529,38374.8250874,35162.4509834,1.33426946144258,103.92654228460164
PAN ISLAND EXPRESSWAY,null,532,BEDOK NORTH STREET 3,460532,38246.2097354,35153.8520006,1.3341917391789182,103.92538660061295
PAN ISLAND EXPRESSWAY,BEDOK RESERVOIR GARDEN,710,BEDOK RESERVOIR ROAD,470710,38071.8602469,35306.6592807,1.3355737307953088,103.92382002314443
PAN ISLAND EXPRESSWAY,null,533,BEDOK NORTH STREET 3,460533,38116.2332927,35086.2220653,1.33358016248303,103.9242186669101
PAN ISLAND EXPRESSWAY,null,536,BEDOK NORTH STREET 3,460536,38001.8396252,35081.9084236,1.3335411894607698,103.92319077443246
PAN ISLAND EXPRESSWAY,null,557,BEDOK NORTH STREET 3,460557,37901.7285415,35006.4684707,1.3328589709690153,103.92229119587361
PAN ISLAND EXPRESSWAY,EUNOS GROVE,613,BEDOK RESERVOIR ROAD,470613,37315.8769458,34899.6659833,1.3318932738361937,103.91702696008223
PAN ISLAND EXPRESSWAY,EUNOS GROVE,614,BEDOK RESERVOIR ROAD,470614,37289.3823808,34956.6959496,1.3324090402179867,103.91678890907366
PAN ISLAND EXPRESSWAY,EUNOS RAINBOW,603,BEDOK RESERVOIR ROAD,470603,36808.0755535,34690.5039247,1.330001839758788,103.91246402238579
PAN ISLAND EXPRESSWAY,EUNOS RAINBOW,605,BEDOK RESERVOIR ROAD,470605,36924.270953,34716.5030027,1.3302369320726584,103.9135081093924
PAN ISLAND EXPRESSWAY,EUNOS RAINBOW,602,BEDOK RESERVOIR ROAD,470602,36710.0554123,34618.3116053,1.3293489868590127,103.91158323705707
PAN ISLAND EXPRESSWAY,EUNOS VISTA,101,BEDOK RESERVOIR ROAD,470101,36526.8931885,34518.8045495,1.3284491330198438,103.90993739659929
PAN ISLAND EXPRESSWAY,KAMPUNG UBI ESTATE,330,UBI AVENUE 1,400330,35871.6432204,34303.9713301,1.3265064355392773,103.90404956376945
PAN ISLAND EXPRESSWAY,EUNOS CRESCENT VIEW,21,EUNOS CRESCENT,400021,35786.2728566,34140.8619785,1.325031355325075,103.9032824237244
PAN ISLAND EXPRESSWAY,KAMPUNG UBI ESTATE,331,UBI AVENUE 1,400331,35812.2284699,34312.9450609,1.3265876060181867,103.90351569256029
PAN ISLAND EXPRESSWAY,KAMPONG UBI VIEW,334,UBI AVENUE 1,400334,35762.7992785,34291.5875175,1.3263944687346751,103.90307153925833
PAN ISLAND EXPRESSWAY,KAMPONG UBI VIEW,335,UBI AVENUE 1,400335,35735.8367705,34252.5744474,1.326041655453942,103.90282925678476
PAN ISLAND EXPRESSWAY,KAMPONG UBI VIEW,336,UBI AVENUE 1,400336,35623.7838775,34217.026789,1.3257202034796858,103.90182239258336
PAN ISLAND EXPRESSWAY,EUNOS CRESCENT VIEW,20,EUNOS CRESCENT,400020,35781.8990421,34099.4105196,1.32465648439259,103.90324311216345
PAN ISLAND EXPRESSWAY,EUNOS CRESCENT VIEW,22,EUNOS CRESCENT,400022,35655.5051785,34110.7542335,1.3247591048341396,103.90210739894916
PAN ISLAND EXPRESSWAY,KAMPONG UBI VIEW,338,UBI AVENUE 1,400338,35651.7409612,34263.4173775,1.3261397362373648,103.90207361352299
PAN ISLAND EXPRESSWAY,KAMPONG UBI VIEW,337,UBI AVENUE 1,400337,35589.3684233,34245.9894054,1.3259821395355549,103.90151315846256
PAN ISLAND EXPRESSWAY,MACPHERSON SPRING,83,CIRCUIT ROAD,370083,34336.5559345,33979.2293715,1.3235699435920059,103.89025590981016
PAN ISLAND EXPRESSWAY,MACPHERSON SPRING,83B,CIRCUIT ROAD,372083,34312.3143669,33967.1285948,1.323460513522612,103.89003808399738
PAN ISLAND EXPRESSWAY,MACPHERSON SPRING,82,CIRCUIT ROAD,370082,34319.7733667,34062.9745867,1.324327308800822,103.8901051267753
PAN ISLAND EXPRESSWAY,MACPHERSON SPRING,83A,CIRCUIT ROAD,371083,34264.7055224,33950.8719029,1.3233135036266974,103.8896102900107
PAN ISLAND EXPRESSWAY,null,94,PIPIT ROAD,370094,34136.3349778,33937.8019454,1.3231953296726644,103.88845681014826
PAN ISLAND EXPRESSWAY,null,93,PAYA LEBAR WAY,370093,34096.9823917,33886.8746402,1.322734769227417,103.88810319625672
PAN ISLAND EXPRESSWAY,null,92A,PIPIT ROAD,371092,34044.9582353,33916.7319177,1.3230047981022302,103.88763573765912
PAN ISLAND EXPRESSWAY,null,91,PAYA LEBAR WAY,370091,33945.0409877,33880.9435985,1.322681160950619,103.88673792149511
PAN ISLAND EXPRESSWAY,null,92,PIPIT ROAD,370092,34013.2276421,33937.734024,1.3231947399021966,103.88735062562927
PAN ISLAND EXPRESSWAY,null,115,ALJUNIED AVENUE 2,380115,34005.1143393,33730.4213695,1.3213198799906833,103.88727768284156
PAN ISLAND EXPRESSWAY,null,114,ALJUNIED AVENUE 2,380114,33953.2646778,33774.9910361,1.3217229622581506,103.88681179518075
PAN ISLAND EXPRESSWAY,null,85,CIRCUIT ROAD,370085,33835.6805227,33877.7621913,1.3226524105243758,103.88575525946317
PAN ISLAND EXPRESSWAY,null,86,CIRCUIT ROAD,370086,33791.4759183,33907.7764385,1.3229238570604165,103.88535806344312
PAN ISLAND EXPRESSWAY,null,96,ALJUNIED CRESCENT,380096,33798.74538,33767.6384586,1.321656497869635,103.88542335697807
PAN ISLAND EXPRESSWAY,null,95,ALJUNIED CRESCENT,380095,33884.6982208,33772.8143443,1.3217032903088983,103.88619568924186
PAN ISLAND EXPRESSWAY,null,87,CIRCUIT ROAD,370087,33818.9124532,33941.9721169,1.3232331053392448,103.88560460167217
PAN ISLAND EXPRESSWAY,MULTI STOREY CAR PARK,98A,ALJUNIED CRESCENT,381098,33757.982094,33705.4586974,1.3210941740251423,103.88505706587773
PAN ISLAND EXPRESSWAY,null,120,PAYA LEBAR WAY,381120,33673.2912767,33871.3169268,1.3225941524382037,103.88429610528239
PAN ISLAND EXPRESSWAY,null,99,ALJUNIED CRESCENT,380099,33674.4267196,33737.1929531,1.3213811829142124,103.88430628309914
PAN ISLAND EXPRESSWAY,null,121,PAYA LEBAR WAY,381121,33513.508104,33797.3240257,1.321925016304109,103.88286035597224
PAN ISLAND EXPRESSWAY,null,100,ALJUNIED CRESCENT,380100,33654.7418153,33690.5110656,1.3209590122389696,103.88412939536899
PAN ISLAND EXPRESSWAY,null,101,ALJUNIED CRESCENT,380101,33568.2217827,33686.4999826,1.3209227533054797,103.88335196704577
PAN ISLAND EXPRESSWAY,null,123,PAYA LEBAR WAY,381123,33555.2240446,33889.2168071,1.32275605425738,103.88323521219077
PAN ISLAND EXPRESSWAY,KIM KEAT VIEW,195,KIM KEAT AVENUE,310195,30876.5316394,34722.5765764,1.3302930339086587,103.85916582140901
PAN ISLAND EXPRESSWAY,KIM KEAT VIEW,195A,KIM KEAT AVENUE,311195,30811.6089936,34734.6826802,1.3304025232892618,103.8585824563503
PAN ISLAND EXPRESSWAY,KIM KEAT VIEW,194,KIM KEAT AVENUE,310194,30767.031639,34794.040315,1.3309393367549727,103.85818190931657
PAN ISLAND EXPRESSWAY,null,57,JALAN MA'MOR,320057,30611.2881223,34516.5310607,1.3284296553340025,103.85678244291984
PAN ISLAND EXPRESSWAY,null,54,JALAN MA'MOR,320054,30556.0205698,34497.2177262,1.3282549970805788,103.8562858318969
PAN ISLAND EXPRESSWAY,null,58,JALAN MA'MOR,320058,30654.1073611,34508.9019246,1.3283606564297668,103.85716719671132
PAN ISLAND EXPRESSWAY,null,242,KIM KEAT LINK,310242,30504.3313287,34674.5199473,1.3298584597607552,103.85582139011957
PAN ISLAND EXPRESSWAY,null,53,JALAN MA'MOR,320053,30535.0457046,34499.820682,1.3282785390436653,103.85609736140422
PAN ISLAND EXPRESSWAY,RAJAH COURT,108,JALAN RAJAH,320108,30480.484899,34512.0740396,1.3283893585587772,103.8556071035229
PAN ISLAND EXPRESSWAY,RAJAH COURT,106,JALAN RAJAH,321106,30379.4082469,34521.7152096,1.3284765579509907,103.85469887486609
PAN ISLAND EXPRESSWAY,RAJAH COURT,106,JALAN RAJAH,321106,30388.9087919,34512.3427285,1.3283917958118356,103.85478424176935
PAN ISLAND EXPRESSWAY,RAJAH COURT,105,JALAN RAJAH,320105,30318.8257576,34498.3785639,1.328265514279623,103.85415450603452
PAN ISLAND EXPRESSWAY,TOA PAYOH GREEN,173,LORONG 1 TOA PAYOH,310173,29025.4630694,34691.0678172,1.330008198666789,103.84253293632285
PAN ISLAND EXPRESSWAY,TOA PAYOH GREEN,172A,LORONG 1 TOA PAYOH,311172,29016.1059038,34720.8510592,1.330277548069769,103.84244885796329
PAN ISLAND EXPRESSWAY,TOA PAYOH GREEN,172,LORONG 1 TOA PAYOH,310172,29083.3715034,34728.7769728,1.3303492249028002,103.84305327721017
PAN ISLAND EXPRESSWAY,MULTI STOREY CAR PARK,171A,LORONG 1 TOA PAYOH,311171,28992.6850526,34776.5311642,1.3307810999850533,103.8422384103449
PAN ISLAND EXPRESSWAY,TOA PAYOH GREEN,174,LORONG 1 TOA PAYOH,310174,28956.7290488,34765.4832291,1.3306811875268587,103.84191532516533
PAN ISLAND EXPRESSWAY,TOA PAYOH GREEN,171,LORONG 1 TOA PAYOH,310171,29060.1075008,34807.0849685,1.3310574154886827,103.84284423986524
PAN ISLAND EXPRESSWAY,SKYLINE I @ BUKIT BATOK,194,BUKIT BATOK WEST AVENUE 6,650194,18171.3893216,36309.0038411,1.3446386473544947,103.74500254538417
PAN ISLAND EXPRESSWAY,SKYLINE I @ BUKIT BATOK,194B,BUKIT BATOK WEST AVENUE 6,652194,18155.7449207,36363.6496589,1.3451328390018664,103.74486195326193
PAN ISLAND EXPRESSWAY,null,180,BUKIT BATOK WEST AVENUE 8,650180,17930.8380926,36410.6618307,1.3455579252774164,103.74284101448289
PAN ISLAND EXPRESSWAY,null,179,BUKIT BATOK WEST AVENUE 8,650179,17860.641856,36438.7904128,1.3458122862291801,103.74221024955315
PAN ISLAND EXPRESSWAY,null,263,JURONG EAST STREET 24,600263,17814.5477425,36276.4119724,1.3443437795826318,103.74179612084666
PAN ISLAND EXPRESSWAY,null,175,BUKIT BATOK WEST AVENUE 8,650175,17792.5741246,36409.6778185,1.3455489795391293,103.74159862974886
PAN ISLAND EXPRESSWAY,null,176,BUKIT BATOK WEST AVENUE 8,650176,17771.6976001,36462.1392867,1.3460234146966281,103.74141102383875
PAN ISLAND EXPRESSWAY,null,174,BUKIT BATOK WEST AVENUE 8,650174,17731.2602094,36421.3819333,1.3456548063466554,103.74104768331274
PAN ISLAND EXPRESSWAY,null,172,BUKIT BATOK WEST AVENUE 8,650172,17668.1139008,36422.9581385,1.345669039300185,103.74048027514164
PAN ISLAND EXPRESSWAY,null,262,JURONG EAST STREET 24,600262,17738.456695,36252.460251,1.3441271431153736,103.74111240541363
PAN ISLAND EXPRESSWAY,null,261,JURONG EAST STREET 24,600261,17659.2955962,36293.215183,1.3444956886217818,103.74040108174911
PAN ISLAND EXPRESSWAY,null,173,BUKIT BATOK WEST AVENUE 8,650173,17706.5382586,36471.1622938,1.3461049931808353,103.7408255247242
PAN ISLAND EXPRESSWAY,null,171,BUKIT BATOK WEST AVENUE 8,650171,17640.2207128,36470.6361151,1.346100211792672,103.74022962169023
PAN ISLAND EXPRESSWAY,null,259,JURONG EAST STREET 24,600259,17600.8083475,36257.7070849,1.3441745462386303,103.73987555104482
PAN ISLAND EXPRESSWAY,null,257,JURONG EAST STREET 24,600257,17462.2304399,36295.6945546,1.3445180426751377,103.73863033261128
PAN ISLAND EXPRESSWAY,HONG KAH EAST PLACE,307,JURONG EAST STREET 32,600307,17040.7655957,36517.2456017,1.3465215178659287,103.73484313886857
PAN ISLAND EXPRESSWAY,HONG KAH EAST PLACE,308,JURONG EAST STREET 32,600308,17011.9256857,36604.2018565,1.347307907604265,103.7345839631993
PAN ISLAND EXPRESSWAY,HONG KAH EAST PLACE,310,JURONG EAST STREET 32,600310,16924.6099986,36703.7733226,1.3482083630539516,103.73379934220313
PAN ISLAND EXPRESSWAY,HONG KAH EAST PLACE,309,JURONG EAST STREET 32,600309,16950.6422504,36629.526352,1.3475369104716155,103.73403328506599
PAN ISLAND EXPRESSWAY,null,334,JURONG EAST AVENUE 1,600334,16672.3554116,36988.4517607,1.3507827952190896,103.73153257388715
PAN ISLAND EXPRESSWAY,null,335,JURONG EAST AVENUE 1,600335,16742.4839992,36926.1662433,1.3502195345186323,103.73216274594617
PAN ISLAND EXPRESSWAY,null,337,JURONG EAST AVENUE 1,600337,16713.8714321,36866.9180878,1.3496837053359407,103.73190566658106
PAN ISLAND EXPRESSWAY,null,333,JURONG EAST AVENUE 1,600333,16608.7957331,37039.1849876,1.3512415835964047,103.73096143164052
PAN ISLAND EXPRESSWAY,null,332,JURONG EAST AVENUE 1,600332,16523.6189936,37077.851792,1.3515912392724863,103.73019605105023
PAN ISLAND EXPRESSWAY,null,331,JURONG EAST AVENUE 1,600331,16548.5487947,36993.2900979,1.3508265041961947,103.73042009299056
PAN ISLAND EXPRESSWAY,MULTI STOREY CAR PARK,139,TENGAH GARDEN AVENUE,690139,16485.3006948,37327.0470728,1.3538448542797716,103.72985164185187
PAN ISLAND EXPRESSWAY,null,410,JURONG WEST STREET 42,640410,16099.4221309,37308.1193524,1.3536735276027985,103.7263842876717
PAN ISLAND EXPRESSWAY,null,409,JURONG WEST STREET 42,640409,15981.5080548,37355.0525853,1.3540979270407807,103.72532473687833
PAN ISLAND EXPRESSWAY,HONG KAH COURT,408,JURONG WEST STREET 42,640408,15674.2622317,37431.1871581,1.3547863343579107,103.7225639086775
PAN ISLAND EXPRESSWAY,HONG KAH COURT,407,JURONG WEST STREET 42,640407,15528.7143642,37443.1484902,1.3548944476572728,103.7212560643072
PAN ISLAND EXPRESSWAY,SPRING HAVEN @ JURONG,561B,JURONG WEST STREET 42,642561,15352.49495,37429.5094643,1.3547710271748095,103.71967262747053
PAN ISLAND EXPRESSWAY,null,864,JURONG WEST STREET 81,640864,12557.2739857,36844.9746471,1.3494834012419392,103.69455611802252
PAN ISLAND EXPRESSWAY,NANYANG PEARL,851,JURONG WEST STREET 81,640851,12325.5588287,36525.2338069,1.3465916671126799,103.69247418413785
PAN ISLAND EXPRESSWAY,NANYANG PEARL,852,JURONG WEST STREET 81,640852,12364.9346,36619.7824524,1.3474467494179692,103.69282794971926
PAN ISLAND EXPRESSWAY,NANYANG PEARL,850,JURONG WEST STREET 81,640850,12265.7199934,36507.0078496,1.346426807212305,103.69193650637403
PAN ISLAND EXPRESSWAY,NANYANG PEARL,849,JURONG WEST STREET 81,640849,12234.0892543,36441.9838061,1.3458387380745542,103.69165231947596
PAN ISLAND EXPRESSWAY,null,944,JURONG WEST STREET 91,640944,12018.2516827,36305.1981264,1.3446015867533871,103.68971296452744
PAN ISLAND EXPRESSWAY,null,941,JURONG WEST STREET 91,640941,11916.1214823,36225.4905695,1.3438806877292757,103.68879530763208
PAN ISLAND EXPRESSWAY,null,943,JURONG WEST STREET 91,640943,12026.7381897,36204.9435422,1.3436949272820609,103.6897892736747
PAN ISLAND EXPRESSWAY,null,945,JURONG WEST STREET 91,640945,12064.672297,36265.1346362,1.3442392925760929,103.69013010188236
PAN ISLAND EXPRESSWAY,NANYANG PEARL,853,JURONG WEST STREET 81,640853,12393.8207292,36589.1251619,1.3471695116660285,103.69308752459655
PAN ISLAND EXPRESSWAY,HONG KAH COURT,405,JURONG WEST STREET 42,640405,15549.0991551,37368.7117999,1.354221278540165,103.72143926539492
PAN ISLAND EXPRESSWAY,null,336,JURONG EAST AVENUE 1,600336,16666.6678153,36947.2741968,1.3504103984146771,103.73148148281754
PAN ISLAND EXPRESSWAY,JURONG EAST COURT,374,JURONG EAST STREET 32,600374,16785.3570545,36859.0298274,1.349612393696372,103.73254801180191
PAN ISLAND EXPRESSWAY,HONG KAH EAST GARDEN,306,JURONG EAST STREET 32,600306,17086.3423386,36467.368656,1.3460704657737725,103.73525269146771
PAN ISLAND EXPRESSWAY,null,262,JURONG EAST STREET 24,600262,17724.7363088,36248.5065259,1.3440913823887073,103.74098912089507
PAN ISLAND EXPRESSWAY,null,264,JURONG EAST STREET 24,600264,17798.7472496,36219.4573128,1.3438286971749764,103.74165416317747
PAN ISLAND EXPRESSWAY,TOH GUAN VIEW,273,TOH GUAN ROAD,600273,18205.7015922,36090.4290752,1.3426619483562332,103.74531093247315
PAN ISLAND EXPRESSWAY,SKYLINE II @ BUKIT BATOK,296,BUKIT BATOK STREET 22,650296,18383.3367308,36187.1882521,1.343537060293406,103.74690705878058
PAN ISLAND EXPRESSWAY,MULTI STOREY CAR PARK,273A,TOH GUAN ROAD,601273,18279.624998,36062.7239725,1.3424114175131379,103.74597518699136
PAN ISLAND EXPRESSWAY,TOH GUAN VIEW,274,TOH GUAN ROAD,600274,18361.4285826,36028.1011826,1.342098327968808,103.74671025165134
PAN ISLAND EXPRESSWAY,null,56,JALAN MA'MOR,320056,30600.9168279,34489.3942999,1.3281842409852362,103.85668924882108
PAN ISLAND EXPRESSWAY,null,55,JALAN BAHAGIA,320055,30598.3198349,34473.5531269,1.328040979258405,103.85666591206684
PAN ISLAND EXPRESSWAY,null,63,JALAN MA'MOR,320063,30689.1689459,34531.1946578,1.3285622609203036,103.85748224631628
PAN ISLAND EXPRESSWAY,null,102,ALJUNIED CRESCENT,380102,33464.552304,33633.0102807,1.3204390302193307,103.88242043324495
PAN ISLAND EXPRESSWAY,null,103,ALJUNIED CRESCENT,380103,33559.1360906,33641.6250332,1.3205169219326423,103.88327031926609
PAN ISLAND EXPRESSWAY,null,97,ALJUNIED CRESCENT,380097,33826.4212438,33728.3533701,1.3213012123058858,103.88567203166815
PAN ISLAND EXPRESSWAY,null,116,ALJUNIED AVENUE 2,380116,33940.8930935,33722.2181406,1.3212457054627726,103.88670061983149
PAN ISLAND EXPRESSWAY,null,113,SIMEI STREET 1,520113,40972.0727047,36111.8262696,1.3428542556737262,103.94988040817998
PAN ISLAND EXPRESSWAY,null,133,SIMEI STREET 1,520133,41617.3145035,36604.9577085,1.3473136658872087,103.95567850496984
PAN ISLAND EXPRESSWAY,null,126,SIMEI STREET 1,520126,41458.7304878,36575.4788414,1.3470471416757754,103.95425351928658
PAN ISLAND EXPRESSWAY,null,136,SIMEI STREET 1,520136,41690.9069289,36673.784107,1.3479360724204934,103.95633980827158
TAMPINES EXPRESSWAY,MATILDA COURT,233,SUMANG LANE,820233,34462.4150537,42570.9153515,1.4012700214228329,103.89138868055706
TAMPINES EXPRESSWAY,MATILDA EDGE,223A,SUMANG LANE,821223,34623.5792939,42570.0495661,1.401262155009782,103.89283687278163
TAMPINES EXPRESSWAY,COMPASSVALE CAPE,287C,COMPASSVALE CRESCENT,543287,35053.4643583,42290.1834649,1.3987310462040097,103.89669967328702
TAMPINES EXPRESSWAY,COMPASSVALE CAPE,287B,COMPASSVALE CRESCENT,542287,34984.1558817,42298.2050557,1.3988036073830667,103.89607688262357
TAMPINES EXPRESSWAY,COMPASSVALE CAPE,288,COMPASSVALE CRESCENT,540288,35143.1056557,42298.4200795,1.3988055131150794,103.89750517469194
TAMPINES EXPRESSWAY,PUNGGOL WAVES,213A,PUNGGOL WALK,821213,35206.5299757,42464.670249,1.4003090031786847,103.89807513461868
TAMPINES EXPRESSWAY,PUNGGOL WAVES,213,PUNGGOL WALK,820213,35270.1604207,42432.0095811,1.4000136160709804,103.89864689769838
TAMPINES EXPRESSWAY,COMPASSVALE CAPE,288A,COMPASSVALE CRESCENT,541288,35087.1058601,42281.1364857,1.3986492203929033,103.8970019671197
TAMPINES EXPRESSWAY,COMPASSVALE CAPE,288B,COMPASSVALE CRESCENT,542288,35176.7574183,42258.7343337,1.3984466013788015,103.89780755314132
TAMPINES EXPRESSWAY,PUNGGOL WAVES,212,PUNGGOL WALK,820212,35329.6431229,42397.0615315,1.3996975436381192,103.89918138922359
TAMPINES EXPRESSWAY,COMPASSVALE CAPE,288C,COMPASSVALE CRESCENT,543288,35206.1132158,42252.3473048,1.3983888321157045,103.898071337048
TAMPINES EXPRESSWAY,PUNGGOL WAVES,212A,PUNGGOL WALK,821212,35307.6294604,42426.1440697,1.399960561067264,103.89898358594678
TAMPINES EXPRESSWAY,COMPASSVALE LODGE,295A,COMPASSVALE CRESCENT,541295,35340.2627963,42239.4416117,1.3982720839781,103.89927677579394
TAMPINES EXPRESSWAY,COMPASSVALE LODGE,295B,COMPASSVALE CRESCENT,542295,35429.4038547,42207.1002711,1.3979795779350104,103.90007777166744
TAMPINES EXPRESSWAY,PUNGGOL CREST,209,PUNGGOL PLACE,820209,35524.9790389,42317.3421398,1.3989765403616952,103.90093662000334
TAMPINES EXPRESSWAY,null,206A,PUNGGOL PLACE,821206,35587.2330776,42344.8571293,1.3992253595762052,103.90149602996227
TAMPINES EXPRESSWAY,PUNGGOL CREST,209C,PUNGGOL PLACE,823209,35508.9220551,42354.1576029,1.39930949012582,103.9007923445552
TAMPINES EXPRESSWAY,PUNGGOL CREST,210,PUNGGOL PLACE,820210,35465.6790646,42362.7009229,1.399386763999944,103.90040377352301
TAMPINES EXPRESSWAY,COMPASSVALE GREEN,299B,COMPASSVALE STREET,542299,35552.8290042,42079.8339328,1.396828595716244,103.90118681275844
TAMPINES EXPRESSWAY,null,205A,PUNGGOL FIELD,821205,35655.7539208,42267.1537063,1.3985226201682002,103.90211172463088
TAMPINES EXPRESSWAY,MULTI STOREY CAR PARK,299,COMPASSVALE STREET,540299,35638.9610013,42065.8536051,1.3967021401299888,103.90196077388457
TAMPINES EXPRESSWAY,null,204D,PUNGGOL FIELD,824204,35704.6496086,42243.7797704,1.398311221849179,103.90255108555785
TAMPINES EXPRESSWAY,null,204C,PUNGGOL FIELD,823204,35762.6861065,42213.0408472,1.398033214748086,103.90307258195948
TAMPINES EXPRESSWAY,RIVERVALE GATEWAY,189B,RIVERVALE DRIVE,542189,35824.7593546,41965.6279874,1.3957956866727688,103.90363029344299
TAMPINES EXPRESSWAY,RIVERVALE GATEWAY,188C,RIVERVALE DRIVE,543188,35955.8939412,41902.1552385,1.395221626633819,103.90480862454176
TAMPINES EXPRESSWAY,RIVERVALE GATEWAY,188B,RIVERVALE DRIVE,542188,36028.2717124,41826.8624788,1.3945406865191434,103.90545897540585
TAMPINES EXPRESSWAY,MULTI STOREY CAR PARK,119,EDGEFIELD PLAINS,820119,36145.7369143,41927.7700948,1.3954532252345944,103.90651452114689
TAMPINES EXPRESSWAY,RIVERVALE GATEWAY,188,RIVERVALE DRIVE,540188,35959.3858979,41856.2328352,1.3948063202731273,103.90483999000081
TAMPINES EXPRESSWAY,null,104B,EDGEFIELD PLAINS,822104,36010.9948986,42055.5505045,1.396608862041502,103.90530379246279
TAMPINES EXPRESSWAY,RIVERVALE GATEWAY,187B,RIVERVALE DRIVE,542187,36071.518093,41800.018924,1.3942979112281202,103.90584757084099
TAMPINES EXPRESSWAY,MULTI STOREY CAR PARK,185,RIVERVALE CRESCENT,540185,36170.0829973,41741.3541839,1.3937673411977343,103.90673323777098
TAMPINES EXPRESSWAY,RIVERVALE GATEWAY,187A,RIVERVALE DRIVE,541187,36067.3691999,41745.3965336,1.3938039274906993,103.90581027466084
TAMPINES EXPRESSWAY,RIVERVALE GATEWAY,188A,RIVERVALE DRIVE,541188,36013.3604929,41798.3250974,1.394282609019455,103.90532497848773
TAMPINES EXPRESSWAY,RIVERVALE GATEWAY,185A,RIVERVALE CRESCENT,541185,36212.7073406,41692.1530012,1.3933223716902081,103.90711623715718
TAMPINES EXPRESSWAY,PUNGGOL EDGE,121,EDGEDALE PLAINS,820121,36344.3829068,41731.9445033,1.3936821938556156,103.90829945676529
TAMPINES EXPRESSWAY,PUNGGOL EDGE,120,EDGEDALE PLAINS,820120,36268.2949769,41789.9222813,1.394206545421805,103.90761576337296
TAMPINES EXPRESSWAY,null,184C,RIVERVALE CRESCENT,543184,36279.5383524,41619.5546369,1.3926657996936322,103.90771674562721
TAMPINES EXPRESSWAY,PUNGGOL EDGE,120A,EDGEDALE PLAINS,821120,36307.0785855,41823.7189974,1.3945121794380069,103.90796427426804
TAMPINES EXPRESSWAY,RIVERVALE GATEWAY,185B,RIVERVALE CRESCENT,542185,36190.9568582,41644.1297577,1.392888073223578,103.90692077853724
TAMPINES EXPRESSWAY,PUNGGOL EDGE,121A,EDGEDALE PLAINS,821121,36380.9769597,41767.3465425,1.3940023463571087,103.90862829324323
TAMPINES EXPRESSWAY,null,184B,RIVERVALE CRESCENT,542184,36224.8552445,41599.4034544,1.3924835753355291,103.9072253694747
TAMPINES EXPRESSWAY,RIVERVALE SHORES,173,SENGKANG EAST DRIVE,540173,36794.5364422,41021.8267017,1.3872600162796176,103.91234422616412
TAMPINES EXPRESSWAY,RIVERVALE SHORES,172,SENGKANG EAST DRIVE,540172,36584.7730798,41008.049442,1.3871354823725728,103.910459338779
TAMPINES EXPRESSWAY,RIVERVALE SHORES,173D,SENGKANG EAST DRIVE,544173,36796.5327368,40967.9605569,1.3867728700374313,103.91236214822867
TAMPINES EXPRESSWAY,RIVERVALE SHORES,173B,SENGKANG EAST DRIVE,542173,36738.0850786,41029.4252974,1.3873287521798197,103.91183697000032
TAMPINES EXPRESSWAY,null,762,PASIR RIS STREET 71,510762,39196.9874281,39740.3730425,1.3756702016905764,103.93393158143341
TAMPINES EXPRESSWAY,null,762A,PASIR RIS STREET 71,511762,39132.1343078,39780.213942,1.3760305326373694,103.9333488450053
TAMPINES EXPRESSWAY,null,769,PASIR RIS STREET 71,510769,39332.270938,39678.0172428,1.3751062271471077,103.93514717610019
TAMPINES EXPRESSWAY,MULTI STOREY CAR PARK,773A,PASIR RIS STREET 71,511773,39416.9011588,39624.4038054,1.3746213344088354,103.9359076179371
TAMPINES EXPRESSWAY,MULTI STOREY CAR PARK,782A,PASIR RIS STREET 71,511782,39691.3228669,39472.0961891,1.3732438132318243,103.93837343074618
TAMPINES EXPRESSWAY,TAMPINES GREENVINES,641B,TAMPINES STREET 62,522641,40276.3287448,38790.1078474,1.3670759274876552,103.94362983620432
TAMPINES EXPRESSWAY,null,559,PASIR RIS STREET 51,510559,41174.3010038,38722.1516837,1.3664609709041442,103.95169869331443
TAMPINES EXPRESSWAY,null,557,PASIR RIS STREET 51,510557,41222.8061742,38784.5565176,1.3670253150782874,103.95213457258475
TAMPINES EXPRESSWAY,null,558,PASIR RIS STREET 51,510558,41175.8944921,38759.9255826,1.366802583120785,103.95171302860302
TAMPINES EXPRESSWAY,null,124,PASIR RIS STREET 11,510124,41464.7183122,38651.3241175,1.3658203022911248,103.95430825576685
TAMPINES EXPRESSWAY,null,123,PASIR RIS STREET 11,510123,41435.4201752,38696.7929854,1.3662315189088254,103.95404501293793
TAMPINES EXPRESSWAY,null,125,PASIR RIS STREET 11,510125,41466.5434716,38691.5759352,1.3661843237191584,103.95432467425199
TAMPINES EXPRESSWAY,TAMPINES GREENEDGE,492J,TAMPINES STREET 45,529492,41532.1762951,38513.1027366,1.3645702494899872,103.9549143480437
TAMPINES EXPRESSWAY,TAMPINES GREENEDGE,492G,TAMPINES STREET 45,527492,41551.2051408,38476.7419893,1.3642414079070055,103.95508531831959
TAMPINES EXPRESSWAY,null,126,PASIR RIS STREET 11,510126,41572.1269463,38614.5664965,1.3654878311592318,103.95527337738126
TAMPINES EXPRESSWAY,TAMPINES GREENEDGE,492,TAMPINES STREET 45,524492,41622.1608011,38441.5737704,1.3639233272603555,103.95572288585316
TAMPINES EXPRESSWAY,null,127,PASIR RIS STREET 11,510127,41566.3689467,38659.3858739,1.3658931633332727,103.95522165833377
TAMPINES EXPRESSWAY,null,134,PASIR RIS STREET 11,510134,41691.9381894,38577.4804376,1.3651523836573909,103.95634994424346
TAMPINES EXPRESSWAY,TAMPINES GREENEDGE,494J,TAMPINES STREET 45,529494,41499.5852436,38444.0511443,1.3639457878052386,103.95462146454179
TAMPINES EXPRESSWAY,TAMPINES GREENEDGE,492F,TAMPINES STREET 45,526492,41669.1654967,38417.9326288,1.3637095040511886,103.95614524327382
TAMPINES EXPRESSWAY,MULTI STOREY CAR PARK,135A,PASIR RIS STREET 11,511135,41750.4556152,38537.0169862,1.364786420367311,103.95687574357007
TAMPINES EXPRESSWAY,TAMPINES GREENEDGE,492H,TAMPINES STREET 45,528492,41720.5326563,38407.9190717,1.3636189214810897,103.95660680649891
TAMPINES EXPRESSWAY,null,498J,TAMPINES STREET 45,527498,41752.5028509,38365.5111446,1.3632353853899808,103.95689406022998
TAMPINES EXPRESSWAY,null,135,PASIR RIS STREET 11,510135,41816.8622397,38510.0298703,1.3645423281781865,103.95747243865515
TAMPINES EXPRESSWAY,null,498H,TAMPINES STREET 45,526498,41821.6364996,38334.8333626,1.3629579149679536,103.9575152573393
TAMPINES EXPRESSWAY,MULTI STOREY CAR PARK,498K,TAMPINES STREET 45,529096,41749.0483356,38323.5782129,1.3628561613995755,103.95686299981243
TAMPINES EXPRESSWAY,null,498N,TAMPINES STREET 45,529097,41854.0692192,38306.2862046,1.3626997301254522,103.95780667337254
TAMPINES EXPRESSWAY,null,142,PASIR RIS STREET 11,510142,41975.9322684,38389.5395953,1.3634525850921655,103.95890173176286
TAMPINES EXPRESSWAY,null,142B,PASIR RIS STREET 11,512142,41936.6871337,38440.8695555,1.363916812310853,103.95854911238285
TAMPINES EXPRESSWAY,null,498L,TAMPINES STREET 45,528498,41786.2750196,38274.1718133,1.3624093313032288,103.9571974831894
TAMPINES EXPRESSWAY,null,498F,TAMPINES STREET 45,524498,41949.7885396,38218.9856515,1.3619101720749591,103.95866673342708
TAMPINES EXPRESSWAY,null,498E,TAMPINES STREET 45,523498,41993.140283,38172.1050849,1.361486181556557,103.95905625516234
TAMPINES EXPRESSWAY,MULTI STOREY CAR PARK,142A,PASIR RIS STREET 11,511142,42070.8492753,38325.5542279,1.3628738807509613,103.95975459335052
TAMPINES EXPRESSWAY,null,498G,TAMPINES STREET 45,525498,41889.1490859,38259.704837,1.3622784494411926,103.95812186730156
TAMPINES EXPRESSWAY,null,498D,TAMPINES STREET 45,522498,42053.0651399,38130.8973741,1.3611134863056458,103.95959469961363
TAMPINES EXPRESSWAY,null,143,PASIR RIS STREET 11,510143,42175.6030743,38227.166815,1.3619840523818683,103.96069582818436
TAMPINES EXPRESSWAY,MULTI STOREY CAR PARK,497L,TAMPINES STREET 45,529098,42084.6901584,38082.5693623,1.3606764110788676,103.95987884815821
TAMPINES EXPRESSWAY,MULTI STOREY CAR PARK,498C,TAMPINES STREET 45,529095,41988.3747706,38094.0697432,1.3607804616993793,103.9590133973956
TAMPINES EXPRESSWAY,null,497G,TAMPINES STREET 45,525497,42066.6615182,38046.0862718,1.360346480365539,103.95971683198144
TAMPINES EXPRESSWAY,null,497H,TAMPINES STREET 45,526497,42104.7858295,37998.4570267,1.3599157214288624,103.9600593810912
TAMPINES EXPRESSWAY,null,368,TAMPINES STREET 34,520368,42241.5810133,37839.1101367,1.3584745832988194,103.96128849813148
TAMPINES EXPRESSWAY,null,366,TAMPINES STREET 34,520366,42251.65665,37744.3480111,1.357617585721282,103.96137898906466
TAMPINES EXPRESSWAY,MULTI STOREY CAR PARK,366A,TAMPINES STREET 34,521366,42213.1450296,37803.2524131,1.3581503132340096,103.96103296562471
TAMPINES EXPRESSWAY,null,353,TAMPINES STREET 33,520353,42435.2611193,37401.0386119,1.3545127372864858,103.96302862663842
TAMPINES EXPRESSWAY,null,361,TAMPINES STREET 34,520361,42384.8840558,37570.373664,1.356044163622252,103.96257603847732
TAMPINES EXPRESSWAY,null,354,TAMPINES STREET 33,520354,42376.3034759,37439.5891569,1.3548614022720304,103.96249887389646
TAMPINES EXPRESSWAY,null,360,TAMPINES STREET 34,520360,42349.4848316,37523.2005574,1.3556175649990387,103.96225793159321
TAMPINES EXPRESSWAY,null,350,TAMPINES STREET 33,520350,42424.8731473,37322.9588671,1.3538066187104523,103.96293524672627
TAMPINES EXPRESSWAY,null,352,TAMPINES STREET 33,520352,42370.0411814,37362.6144659,1.354165275365012,103.9624425664225
TAMPINES EXPRESSWAY,null,349,TAMPINES STREET 33,520349,42433.3900131,37279.8658846,1.3534168980011902,103.96301175535265
TAMPINES EXPRESSWAY,null,348,TAMPINES STREET 33,520348,42472.9229055,37181.3124821,1.3525255992722645,103.96336693543145
TAMPINES EXPRESSWAY,null,351,TAMPINES STREET 33,520351,42422.4248609,37213.3601628,1.35281545076824,103.96291319475004
TAMPINES EXPRESSWAY,null,144,PASIR RIS STREET 11,510144,42158.709998,38274.0269205,1.3624078454835922,103.96054405510128
TAMPINES EXPRESSWAY,null,139,PASIR RIS STREET 11,510139,42052.1633356,38396.7753384,1.3635179863632978,103.95958672147691
TAMPINES EXPRESSWAY,null,138,PASIR RIS STREET 11,510138,42067.7250746,38376.0624124,1.3633306591230858,103.95972654417501
TAMPINES EXPRESSWAY,null,140,PASIR RIS STREET 11,510140,42007.0127356,38444.3725601,1.3639484589906437,103.9591810359718
TAMPINES EXPRESSWAY,null,136,PASIR RIS STREET 11,510136,41870.0744447,38526.2654655,1.3646891318826981,103.9579505931347
TAMPINES EXPRESSWAY,null,137A,PASIR RIS STREET 11,511137,41756.7347993,38561.7251651,1.3650098688820782,103.95693217761581
TAMPINES EXPRESSWAY,null,137,PASIR RIS STREET 11,510137,41789.9392012,38578.1986363,1.3651588332777984,103.95723054886012
TAMPINES EXPRESSWAY,null,133,PASIR RIS STREET 11,510133,41673.9175096,38640.9732541,1.3657265970377674,103.95618804559537
TAMPINES EXPRESSWAY,null,128,PASIR RIS STREET 11,510128,41610.0582689,38679.1632166,1.3660720020850348,103.95561424513906
TAMPINES EXPRESSWAY,null,560,PASIR RIS STREET 51,510560,41032.3086558,38755.6669983,1.3667641337322427,103.95042281132778
TAMPINES EXPRESSWAY,null,561,PASIR RIS STREET 51,510561,41081.5243974,38783.1915223,1.3670130334398163,103.95086506000328
TAMPINES EXPRESSWAY,null,562,PASIR RIS STREET 51,510562,41016.6119822,38847.0286674,1.3675903812407455,103.95028180612663
TAMPINES EXPRESSWAY,COSTA RIS,526A,PASIR RIS STREET 51,511526,40663.1194041,38841.6202932,1.3675416235526605,103.94710543371176
TAMPINES EXPRESSWAY,COSTA RIS,526,PASIR RIS STREET 51,510526,40701.9528035,38896.6626519,1.3680393893332534,103.94745440161918
TAMPINES EXPRESSWAY,COSTA RIS,526B,PASIR RIS STREET 51,512526,40655.0256545,38880.4464888,1.3678927565776637,103.94703272241493
TAMPINES EXPRESSWAY,null,780,PASIR RIS STREET 71,510780,39626.5363059,39508.8940363,1.3735766249243604,103.93779129251342
TAMPINES EXPRESSWAY,null,782,PASIR RIS STREET 71,510782,39749.6299,39488.1217244,1.3733887189727103,103.9388973666751
TAMPINES EXPRESSWAY,null,775,PASIR RIS STREET 71,510775,39553.3865498,39565.8095291,1.3740913762675457,103.93713401276958
TAMPINES EXPRESSWAY,null,774,PASIR RIS STREET 71,510774,39504.0022761,39575.6733505,1.3741806003574644,103.93669026410147
TAMPINES EXPRESSWAY,null,768,PASIR RIS STREET 71,510768,39373.5057084,39707.260504,1.3753706763910474,103.93551771099442
TAMPINES EXPRESSWAY,null,770,PASIR RIS STREET 71,510770,39439.6182491,39675.3978213,1.3750824964787811,103.9361117667756
TAMPINES EXPRESSWAY,null,759,PASIR RIS STREET 71,510759,39066.8028627,39829.0497295,1.3764722100599465,103.93276181367493
TAMPINES EXPRESSWAY,RIVERVALE SHORES,174A,SENGKANG EAST DRIVE,541174,36868.7124344,40896.160995,1.3861235192846197,103.91301071584817
TAMPINES EXPRESSWAY,RIVERVALE SHORES,175,SENGKANG EAST DRIVE,540175,36897.9789716,40893.2850522,1.3860975013958112,103.91327369693546
TAMPINES EXPRESSWAY,PUNGGOL EDGE,121B,EDGEDALE PLAINS,822121,36426.9951006,41666.3218499,1.393088702760502,103.90904177326591
TAMPINES EXPRESSWAY,MULTI STOREY CAR PARK,184,RIVERVALE CRESCENT,540184,36342.346265,41555.8421657,1.392089589473351,103.90828110562272
TAMPINES EXPRESSWAY,PUNGGOL EDGE,122A,EDGEDALE PLAINS,821122,36434.2038144,41712.8862674,1.393509812173508,103.90910656265949
TAMPINES EXPRESSWAY,PUNGGOL EDGE,120B,EDGEDALE PLAINS,822120,36264.8337422,41859.721069,1.394837781052518,103.90758468123387
TAMPINES EXPRESSWAY,RIVERVALE GATEWAY,185D,RIVERVALE CRESCENT,544185,36127.5715839,41752.3724564,1.3938669983661742,103.90635124236869
TAMPINES EXPRESSWAY,null,115,EDGEFIELD PLAINS,820115,36228.519759,41891.8713278,1.3951285465430594,103.90725838047854
TAMPINES EXPRESSWAY,null,116,EDGEFIELD PLAINS,820116,36189.9946693,41923.6199305,1.3954156801865516,103.90691221098575
TAMPINES EXPRESSWAY,null,117,EDGEFIELD PLAINS,820117,36157.2303034,41964.7164973,1.3957873517208266,103.90661780869974
TAMPINES EXPRESSWAY,null,104A,EDGEFIELD PLAINS,821104,35983.2165474,42077.3155457,1.396805704779011,103.90505418779847
TAMPINES EXPRESSWAY,MULTI STOREY CAR PARK,105,EDGEFIELD PLAINS,820105,36042.9406064,42124.1659351,1.397229385989772,103.9055908690701
TAMPINES EXPRESSWAY,RIVERVALE GATEWAY,189A,RIVERVALE DRIVE,541189,35868.3138935,41939.7018248,1.3955612081433835,103.90402165857499
TAMPINES EXPRESSWAY,null,203B,PUNGGOL FIELD,822203,35807.6387539,42214.7229904,1.3980484153276627,103.90347651804608
TAMPINES EXPRESSWAY,MULTI STOREY CAR PARK,204,PUNGGOL FIELD,820204,35761.9309203,42263.0025432,1.3984850502411994,103.90306580933802
TAMPINES EXPRESSWAY,PUNGGOL CREST,210C,PUNGGOL PLACE,823210,35411.3556311,42392.2936885,1.3996544041479677,103.89991564108553
TAMPINES EXPRESSWAY,MATILDA EDGE,221A,SUMANG LANE,821221,34939.3746419,42539.4721225,1.4009855495077417,103.89567454466022
TAMPINES EXPRESSWAY,MATILDA EDGE,221B,SUMANG LANE,822221,34871.5270495,42543.494677,1.4010219442663194,103.8950648796513
TAMPINES EXPRESSWAY,MATILDA EDGE,222,SUMANG LANE,820222,34782.9671364,42553.5256987,1.4011126821307003,103.8942690989147
TAMPINES EXPRESSWAY,MATILDA EDGE,222A,SUMANG LANE,821222,34694.7532469,42554.9588877,1.401125663980748,103.89347642542683
TAMPINES EXPRESSWAY,MATILDA COURT,233C,SUMANG LANE,823233,34423.7462516,42622.0965143,1.4017328938596945,103.89104122108894
TAMPINES EXPRESSWAY,MATILDA COURT,234B,SUMANG LANE,822234,34493.429234,42616.4894914,1.4016821703761355,103.89166737851626
AYER RAJAH EXPRESSWAY,null,427,CLEMENTI AVENUE 3,120427,20263.5742541,32696.673322,1.311970644899582,103.76380299965858
AYER RAJAH EXPRESSWAY,null,428,CLEMENTI AVENUE 3,120428,20225.0855163,32747.7251195,1.3124323293011784,103.76345714683423
AYER RAJAH EXPRESSWAY,null,426,CLEMENTI AVENUE 3,120426,20309.0107958,32653.5214684,1.3115804064302736,103.76421127977773
AYER RAJAH EXPRESSWAY,null,604,CLEMENTI WEST STREET 1,120604,20674.2506204,31973.1847294,1.3054277739757236,103.76749329715197
AYER RAJAH EXPRESSWAY,null,606,CLEMENTI WEST STREET 1,120606,20729.5649369,31909.686949,1.3048535358453588,103.7679903367412
AYER RAJAH EXPRESSWAY,null,611,CLEMENTI WEST STREET 1,120611,20895.002744,31781.8430068,1.3036973994057355,103.76947690094153
AYER RAJAH EXPRESSWAY,MOUNT FABER GREEN,1,TELOK BLANGAH CRESCENT,090001,26283.7653136,29101.3356425,1.2794566007729493,103.81789756198557
AYER RAJAH EXPRESSWAY,MOUNT FABER GREEN,1A,TELOK BLANGAH CRESCENT,091001,26271.8534394,29117.9459856,1.2796068182379763,103.817790528392
AYER RAJAH EXPRESSWAY,MOUNT FABER GREEN,5A,TELOK BLANGAH CRESCENT,091005,26405.2027344,29037.885292,1.278882784432578,103.8189887262748
AYER RAJAH EXPRESSWAY,MOUNT FABER GREEN,4,TELOK BLANGAH CRESCENT,090004,26344.4773196,29024.2999313,1.2787599200686879,103.81844308631038
AYER RAJAH EXPRESSWAY,MOUNT FABER GREEN,5,TELOK BLANGAH CRESCENT,090005,26430.9843673,29020.3307998,1.2787240290544513,103.81922038480256
AYER RAJAH EXPRESSWAY,null,7,TELOK BLANGAH CRESCENT,090007,26449.1943733,28980.2300799,1.2783613731074794,103.81938401049752
AYER RAJAH EXPRESSWAY,MOUNT FABER VIEW,13,TELOK BLANGAH CRESCENT,090013,26570.647715,28957.9034466,1.27815946459735,103.82047531520435
AYER RAJAH EXPRESSWAY,MOUNT FABER VIEW,14A,TELOK BLANGAH CRESCENT,091014,26598.998797,28913.7658252,1.277760300695768,103.82073006220675
AYER RAJAH EXPRESSWAY,MOUNT FABER VIEW,16,TELOK BLANGAH CRESCENT,090016,26685.2005315,28946.2027218,1.2780536523229633,103.821504615515
AYER RAJAH EXPRESSWAY,MOUNT FABER VIEW,18,TELOK BLANGAH CRESCENT,090018,26799.9678875,28930.3009826,1.2779098471392238,103.82253584362121
AYER RAJAH EXPRESSWAY,null,142,JALAN BUKIT MERAH,160142,27414.3393395,28830.6034503,1.2770082349737266,103.82805620188223
AYER RAJAH EXPRESSWAY,BUKIT PURMEI VILLE,115,BUKIT PURMEI ROAD,090115,27291.2475313,28647.4673478,1.2753520136966752,103.82695018058232
AYER RAJAH EXPRESSWAY,null,138,JALAN BUKIT MERAH,160138,27211.9428714,28987.1043931,1.2784235702495679,103.82623759094255
AYER RAJAH EXPRESSWAY,null,137,JALAN BUKIT MERAH,160137,27292.2264886,28956.5512547,1.27814726027832,103.82695896998526
AYER RAJAH EXPRESSWAY,null,108,JALAN BUKIT MERAH,160108,27123.3315027,29075.1795039,1.2792200883385962,103.82544138218435
AYER RAJAH EXPRESSWAY,null,139,JALAN BUKIT MERAH,160139,27272.8965975,29059.5266885,1.2790785335683075,103.82678528133485
BUKIT TIMAH EXPRESSWAY,null,273,BANGKIT ROAD,670273,21549.1343404,39950.6406695,1.377573210957895,103.77535283517248
CENTRAL EXPRESSWAY,null,547,ANG MO KIO AVENUE 10,560547,30770.0718461,39578.636465,1.374209517435547,103.85820966788779
CENTRAL EXPRESSWAY,null,551,ANG MO KIO AVENUE 10,560551,30820.8244748,39547.5767919,1.3739286200589316,103.8586657137937
CENTRAL EXPRESSWAY,null,547,ANG MO KIO AVENUE 10,560547,30775.8865377,39566.6217099,1.3741008597473978,103.85826191594677
CENTRAL EXPRESSWAY,null,550,ANG MO KIO AVENUE 10,560550,30769.5465755,39512.0900024,1.3736076951205134,103.85820494172997
CENTRAL EXPRESSWAY,TENTERAM PEAK,117,JALAN TENTERAM,320117,31153.3012048,34506.0969603,1.3283352416971104,103.86165272793812
CENTRAL EXPRESSWAY,TENTERAM PEAK,117A,JALAN TENTERAM,321117,31096.0622077,34494.8555522,1.3282335842714257,103.86113840291368
CENTRAL EXPRESSWAY,TENTERAM PEAK,116,JALAN TENTERAM,320116,31106.9655527,34435.8476942,1.3276999370452631,103.86123636948065
CENTRAL EXPRESSWAY,TENTERAM PEAK,116B,JALAN TENTERAM,322116,31059.2271007,34419.1661609,1.3275490800147176,103.86080741166133
CENTRAL EXPRESSWAY,TENTERAM PEAK,116A,JALAN TENTERAM,321116,31031.5131899,34364.3256897,1.3270531250324282,103.86055838157498
CENTRAL EXPRESSWAY,WHAMPOA HEIGHTS,21,JALAN TENTERAM,320021,30983.9253514,34265.2522832,1.3261571450040566,103.86013076923501
CENTRAL EXPRESSWAY,WHAMPOA HEIGHTS,20,JALAN TENTERAM,320020,30962.163004,34332.7651117,1.3267677091889496,103.85993522925652
CENTRAL EXPRESSWAY,WHAMPOA HEIGHTS,22,JALAN TENTERAM,320022,30919.880689,34293.2403311,1.3264102651802863,103.85955529585893
CENTRAL EXPRESSWAY,WHAMPOA COURT,75,WHAMPOA DRIVE,320075,30767.3911924,34073.0277948,1.3244187553336402,103.8581850749943
CENTRAL EXPRESSWAY,null,75A,WHAMPOA DRIVE,321075,30735.4604673,34077.9079926,1.3244628929904105,103.8578981607353
CENTRAL EXPRESSWAY,null,6,SAINT GEORGE'S LANE,320006,30844.6468611,33947.1752741,1.3232805826624534,103.85887924696821
CENTRAL EXPRESSWAY,null,7,SAINT GEORGE'S LANE,320007,30864.4144272,33993.5954949,1.3237003888319236,103.85905687339654
CENTRAL EXPRESSWAY,WHAMPOA COURT,74,WHAMPOA DRIVE,320074,30719.2913709,34105.8726131,1.324715796547228,103.85775287520343
CENTRAL EXPRESSWAY,WHAMPOA VIEW,95,WHAMPOA DRIVE,320095,30546.3107823,33826.8221735,1.322192178190122,103.85619852851454
CENTRAL EXPRESSWAY,WHAMPOA VIEW,94,WHAMPOA DRIVE,320094,30496.8773231,33803.2956568,1.3219794167845678,103.85575434084689
CENTRAL EXPRESSWAY,WHAMPOA VIEW,96,WHAMPOA DRIVE,320096,30487.0628991,33756.5567444,1.3215567274174516,103.85566614929112
CENTRAL EXPRESSWAY,MULTI STOREY CAR PARK,85A,WHAMPOA DRIVE,321085,30557.3971577,33908.7444692,1.3229330534788386,103.85629815226693
CENTRAL EXPRESSWAY,WHAMPOA VIEW,85,WHAMPOA DRIVE,320085,30575.1893445,33895.1878327,1.3228104505682676,103.85645802338134
CENTRAL EXPRESSWAY,TOWNER RESIDENCES,153,TOWNER ROAD,320153,30579.4795587,33691.6541965,1.3209697641133242,103.85649655617638
CENTRAL EXPRESSWAY,TOWNER RESIDENCES,153A,TOWNER ROAD,321153,30626.178699,33676.1312913,1.32082937648611,103.85691617110407
CENTRAL EXPRESSWAY,TOWNER RESIDENCES,152,TOWNER ROAD,320152,30563.3356453,33651.242685,1.320604298074053,103.85635149129047
CENTRAL EXPRESSWAY,WHAMPOA VIEW,97,WHAMPOA DRIVE,320097,30407.119827,33725.0160525,1.3212714909655758,103.85494781624816
CENTRAL EXPRESSWAY,MULTI STOREY CAR PARK,98A,WHAMPOA DRIVE,321098,30372.2947864,33755.8563735,1.3215504026262666,103.85463489734022
CENTRAL EXPRESSWAY,WHAMPOA VIEW,100,WHAMPOA DRIVE,320100,30340.4490235,33670.6111375,1.320779477351722,103.85434873992133
CENTRAL EXPRESSWAY,WHAMPOA VIEW,99,WHAMPOA DRIVE,320099,30279.8018818,33674.2956894,1.3208128037114433,103.85380379387176
CENTRAL EXPRESSWAY,null,39A,CAMBRIDGE ROAD,211039,29705.3081049,33204.5595858,1.3165647139052357,103.8486416403817
CENTRAL EXPRESSWAY,null,39,CAMBRIDGE ROAD,210039,29686.0376299,33179.4986336,1.3163380725758858,103.84846848399341
CENTRAL EXPRESSWAY,null,38,CAMBRIDGE ROAD,210038,29735.1434381,33207.2684796,1.3165892105122614,103.84890972618092
CENTRAL EXPRESSWAY,null,40,CAMBRIDGE ROAD,210040,29660.9496786,33141.3440241,1.3159930171398886,103.8482430539585
CENTRAL EXPRESSWAY,CHIN SWEE VIEW,8,JALAN KUKOH,162008,28677.5967041,29977.1974119,1.2873776268223553,103.8394070605944
CENTRAL EXPRESSWAY,CHIN SWEE VIEW,10,JALAN KUKOH,162010,28640.732903,29932.5480497,1.2869738344393835,103.83907582348323
CENTRAL EXPRESSWAY,MULTI STOREY CAR PARK,8A,JALAN KUKOH,167008,28626.0772058,29970.0098251,1.2873126258783572,103.83894413685942
CENTRAL EXPRESSWAY,null,12,YORK HILL,163012,28537.4033943,29924.8364334,1.2869040952223954,103.83814736594277
CENTRAL EXPRESSWAY,null,10A,JALAN KUKOH,163010,28596.0227627,29917.5207525,1.28683793371758,103.83867408451472
CENTRAL EXPRESSWAY,TIONG BAHRU ESTATE,75,TIONG POH ROAD,160075,27879.2737302,29444.4199993,1.2825593818951824,103.8322338068407
CENTRAL EXPRESSWAY,TIONG BAHRU ESTATE,76,GUAN CHUAN STREET,160076,27828.5658376,29497.2271884,1.2830369513536506,103.83177817641739
CENTRAL EXPRESSWAY,KIM TIAN GREEN,127C,KIM TIAN ROAD,163127,27634.648703,29329.8008051,1.281522804200257,103.83003575716559
CENTRAL EXPRESSWAY,KIM TIAN VISTA,131C,KIM TIAN ROAD,163131,27499.5968339,29195.9637416,1.2803124268650103,103.82882226620806
CENTRAL EXPRESSWAY,KIM TIAN VISTA,131,JALAN BUKIT MERAH,160131,27450.085011,29173.1486132,1.280106094016059,103.82837738400973
CENTRAL EXPRESSWAY,null,134,JALAN BUKIT MERAH,160134,27377.3365478,29032.1566524,1.2788310107923266,103.8277237141705
CENTRAL EXPRESSWAY,null,136,JALAN BUKIT MERAH,160136,27356.5840917,28972.0734637,1.278287639075372,103.82753724677089
CENTRAL EXPRESSWAY,null,141,JALAN BUKIT MERAH,160141,27490.3191824,28845.7921364,1.2771455974483867,103.82873890860469
CENTRAL EXPRESSWAY,null,142,JALAN BUKIT MERAH,160142,27414.3393395,28830.6034503,1.2770082349737266,103.82805620188223
CENTRAL EXPRESSWAY,null,137,JALAN BUKIT MERAH,160137,27292.2264886,28956.5512547,1.27814726027832,103.82695896998526
CENTRAL EXPRESSWAY,null,135,JALAN BUKIT MERAH,160135,27306.294654,29006.6887774,1.2786006867738011,103.82708537660955
CENTRAL EXPRESSWAY,null,138,JALAN BUKIT MERAH,160138,27211.9428714,28987.1043931,1.2784235702495679,103.82623759094255
CENTRAL EXPRESSWAY,null,37,CAMBRIDGE ROAD,210037,29785.6531056,33237.9279797,1.316866481296938,103.8493635830144
CENTRAL EXPRESSWAY,MULTI STOREY CAR PARK,37A,CAMBRIDGE ROAD,211037,29722.9920231,33151.716287,1.3160868168033484,103.84880053643866
CENTRAL EXPRESSWAY,WHAMPOA VIEW,84,WHAMPOA DRIVE,320084,30638.6172967,33937.1824808,1.3231902298715326,103.85702796079764
CENTRAL EXPRESSWAY,WHAMPOA VIEW,83,WHAMPOA DRIVE,320083,30639.3845295,33979.709906,1.3235748327650303,103.85703485844338
CENTRAL EXPRESSWAY,null,8,SAINT GEORGE'S LANE,320008,30955.7126848,33979.8154202,1.3235757580237595,103.85987723564564
CENTRAL EXPRESSWAY,WHAMPOA VISTA,29,JALAN BAHAGIA,320029,30851.4687803,34165.8361827,1.3252580737373179,103.85894056583743
AYER RAJAH EXPRESSWAY,MOUNT FABER VIEW,19,TELOK BLANGAH CRESCENT,090019,26813.0085759,28880.8674629,1.2774627882084468,103.82265302091103
AYER RAJAH EXPRESSWAY,TIONG BAHRU ORCHID,107,JALAN BUKIT MERAH,160107,27047.2511096,29143.3838044,1.2798369019115559,103.82475776910874
AYER RAJAH EXPRESSWAY,null,125,BUKIT MERAH LANE 1,150125,24578.8279356,29755.9168093,1.2853762636352952,103.80257798566842
AYER RAJAH EXPRESSWAY,null,125,BUKIT MERAH LANE 1,150125,24625.766193,29817.5510808,1.28593366735412,103.80299973798806
AYER RAJAH EXPRESSWAY,null,126,BUKIT MERAH LANE 1,150126,24625.0999644,29728.6461127,1.2851296420646217,103.80299376114816
PAN ISLAND EXPRESSWAY,null,114A,LORONG 3 GEYLANG,382114,32576.5807078,32747.2123798,1.3124283345659338,103.87444141538025
PAN ISLAND EXPRESSWAY,KALLANG BREEZE,20,LORONG 3 GEYLANG,381020,32560.2720457,32894.944385,1.313764372759262,103.8742948957754
PAN ISLAND EXPRESSWAY,KALLANG BREEZE,20A,LORONG 3 GEYLANG,382020,32551.6374375,32935.6538545,1.3141325360161618,103.87421731551683
PAN ISLAND EXPRESSWAY,KALLANG BREEZE,22,LORONG 3 GEYLANG,380022,32562.5125425,32979.6316004,1.3145302535117431,103.87431504023486
PAN ISLAND EXPRESSWAY,KALLANG BREEZE,20B,LORONG 3 GEYLANG,383020,32515.4332968,32991.1000184,1.3146339767596105,103.87389201136978
PAN ISLAND EXPRESSWAY,null,19,UPPER BOON KENG ROAD,380019,32479.56053,33038.9416237,1.315066644488136,103.87356968355412
PAN ISLAND EXPRESSWAY,SIMS VISTA,41,SIMS DRIVE,380041,32700.0887008,33236.728853,1.31685532892229,103.87555126980803
PAN ISLAND EXPRESSWAY,null,42,SIMS DRIVE,380042,32749.4307506,33252.7483347,1.3170001958202868,103.87599463563598
PAN ISLAND EXPRESSWAY,null,42A,SIMS DRIVE,381042,32760.8742883,33216.1128147,1.3166688754364058,103.8760974559904
PAN ISLAND EXPRESSWAY,null,40,SIMS DRIVE,380040,32789.4301938,33305.3643512,1.3174760301367594,103.87635405911726
PAN ISLAND EXPRESSWAY,MACPHERSON SPRING,82B,CIRCUIT ROAD,372082,34241.4634338,33996.1932446,1.3237233783733453,103.88940145675558
PAN ISLAND EXPRESSWAY,MACPHERSON BLOSSOM,76,CIRCUIT ROAD,370076,34297.3428838,34194.516883,1.3255169348447973,103.88990360392573
PAN ISLAND EXPRESSWAY,MACPHERSON SPRING,82A,CIRCUIT ROAD,371082,34281.422893,34058.7495697,1.3242891071786842,103.88976052648239
PAN ISLAND EXPRESSWAY,KAMPUNG UBI ESTATE,329,UBI AVENUE 1,400329,35956.9862522,34361.534013,1.32702698949119,103.90481643175177
PAN ISLAND EXPRESSWAY,KAMPUNG UBI ESTATE,327,UBI AVENUE 1,400327,35865.8717212,34348.0126085,1.3269047304602197,103.90399771504504
PAN ISLAND EXPRESSWAY,KAMPUNG UBI ESTATE,322,UBI AVENUE 1,400322,35958.9218292,34459.4922864,1.3279128882414282,103.90483384940254
PAN ISLAND EXPRESSWAY,KAMPUNG UBI ESTATE,321,UBI AVENUE 1,400321,35947.3130586,34526.1511945,1.3285157303702686,103.90472955559765
PAN ISLAND EXPRESSWAY,KAMPUNG UBI ESTATE,328,UBI AVENUE 1,400328,35955.7133321,34420.9558765,1.3275643797036698,103.9048050093057
KALLANG PAYA LEBAR EXPRESSWAY,null,42,SIMS DRIVE,380042,32749.4307506,33252.7483347,1.3170001958202868,103.87599463563598
KALLANG PAYA LEBAR EXPRESSWAY,null,40,SIMS DRIVE,380040,32789.4301938,33305.3643512,1.3174760301367594,103.87635405911726
KRANJI EXPRESSWAY,null,461,CHOA CHU KANG AVENUE 4,680461,17008.3402009,40017.6245347,1.3781776375962944,103.73455048782873
KRANJI EXPRESSWAY,null,510,CHOA CHU KANG STREET 51,680510,17768.218931,41097.9042194,1.3879475626251587,103.74137817103538
KRANJI EXPRESSWAY,null,509,CHOA CHU KANG STREET 51,680509,17817.191439,41103.6959073,1.38799995768266,103.74181822422378
KRANJI EXPRESSWAY,MULTI STOREY CAR PARK,511A,CHOA CHU KANG STREET 51,681511,17738.0094855,41169.0042883,1.3885905546816435,103.74110669129672
KRANJI EXPRESSWAY,null,508,CHOA CHU KANG STREET 51,680508,17797.7027015,41144.1745229,1.388366024472014,103.7416430890006
KRANJI EXPRESSWAY,null,507,CHOA CHU KANG STREET 51,680507,17758.0519152,41225.867932,1.389104815480476,103.74128676790984
KRANJI EXPRESSWAY,null,511,CHOA CHU KANG STREET 51,680511,17712.3482284,41251.5858509,1.3893373826784516,103.74087607631593
KRANJI EXPRESSWAY,SENJA GATEWAY,635A,SENJA ROAD,671635,19529.8789342,40944.6615646,1.3865622582454167,103.75720807249452
KRANJI EXPRESSWAY,SENJA GATEWAY,634,SENJA ROAD,670634,19570.3100291,40912.345861,1.3862700185883574,103.75757138583492
KRANJI EXPRESSWAY,SENJA GATEWAY,635,SENJA ROAD,670635,19562.2824755,40985.0458652,1.3869274884669696,103.75749923126375
KRANJI EXPRESSWAY,SENJA PARC VIEW,636,SENJA ROAD,670636,19614.7039294,41030.8583654,1.3873418150768262,103.75797026475111
KRANJI EXPRESSWAY,SENJA GATEWAY,635B,SENJA ROAD,672635,19585.7892576,40949.1374124,1.3866027523756956,103.75771046786835
KRANJI EXPRESSWAY,SENJA PARC VIEW,636B,SENJA ROAD,672636,19654.8996605,41062.1379354,1.3876247075997692,103.75833144509464
KRANJI EXPRESSWAY,SENJA PARC VIEW,636A,SENJA ROAD,671636,19677.8919473,40983.7347772,1.3869156647318073,103.75853807059146
KRANJI EXPRESSWAY,SENJA VALLEY,646A,SENJA CLOSE,671646,20268.940586,41239.4806853,1.3892287002160821,103.76384902458871
EAST COAST PARKWAY,MARINE CRESCENT VILLE,30,MARINE CRESCENT,440030,36663.4876956,31839.982325,1.3042227947677383,103.91116402135407
EAST COAST PARKWAY,MARINE DRIVE GARDENS,66,MARINE DRIVE,440066,36505.0605286,31805.6036464,1.3039119302809996,103.90974047149903
EAST COAST PARKWAY,MARINE DRIVE GARDENS,67,MARINE DRIVE,440067,36489.7509522,31865.9225319,1.3044574367438844,103.90960292439566
EAST COAST PARKWAY,MARINE CRESCENT VILLE,31,MARINE CRESCENT,440031,36694.7362107,31782.7907881,1.3037055663846862,103.91144478759082
EAST COAST PARKWAY,MARINE DRIVE GARDENS,65,MARINE DRIVE,440065,36504.3917878,31749.6024888,1.303405476174082,103.90973444729228
EAST COAST PARKWAY,MULTI STOREY CAR PARK,65A,MARINE DRIVE,441065,36517.942522,31695.2403728,1.3029138410646772,103.90985619195604
EAST COAST PARKWAY,MARINE DRIVE GARDENS,63,MARINE DRIVE,440063,36449.2451862,31636.2864221,1.302380701558066,103.90923889935809
EAST COAST PARKWAY,MARINE DRIVE GARDENS,62,MARINE DRIVE,440062,36427.1478631,31668.3006869,1.302670233050093,103.90904035359223
EAST COAST PARKWAY,MARINE DRIVE VIEW,77,MARINE DRIVE,440077,36376.6075341,31595.9361427,1.3020158078519184,103.90858620649504
EAST COAST PARKWAY,MARINE CRESCENT VILLE,32,MARINE CRESCENT,440032,36735.0092461,31724.4870542,1.3031782771255844,103.91180664280861
EAST COAST PARKWAY,MARINE CRESCENT VILLE,32A,MARINE CRESCENT,441032,36738.3839144,31753.2473291,1.3034383737255004,103.91183697378523
PAN ISLAND EXPRESSWAY,null,64,JALAN MA'MOR,320064,30730.3706334,34527.8876082,1.32853234946814,103.85785246590221
PAN ISLAND EXPRESSWAY,null,65,JALAN MA'MOR,320065,30743.6161755,34491.5601558,1.3282038156889675,103.85797148114588
PAN ISLAND EXPRESSWAY,RAJAH COURT,107,JALAN RAJAH,320107,30412.2226155,34452.8017907,1.32785332684865,103.85499372463144
PAN ISLAND EXPRESSWAY,WHAMPOA GARDENS,52,JALAN BAHAGIA,320052,30510.9390111,34440.9378005,1.3277460251482152,103.85588074466723
PAN ISLAND EXPRESSWAY,WHAMPOA GARDENS,51,JALAN BAHAGIA,320051,30526.5396142,34438.18635,1.327721140715329,103.85602092441715
PAN ISLAND EXPRESSWAY,null,59,JALAN MA'MOR,320059,30649.4878311,34481.1395851,1.328109584084187,103.85712568528905
PAN ISLAND EXPRESSWAY,null,60,JALAN BAHAGIA,320060,30649.035234,34464.8495984,1.32796226326346,103.85712161704677
PAN ISLAND EXPRESSWAY,null,62,JALAN MA'MOR,320062,30697.2261318,34482.0046138,1.3281174029041005,103.85755464024284
PAN ISLAND EXPRESSWAY,KIM KEAT BEACON,265,KIM KEAT AVENUE,310265,30979.934548,34876.1358343,1.3316817593255146,103.86009496916195
PAN ISLAND EXPRESSWAY,MULTI STOREY CAR PARK,161A,LORONG 1 TOA PAYOH,311161,29294.3234592,34714.5704828,1.3302207381947966,103.84494879775276
PAN ISLAND EXPRESSWAY,TOA PAYOH GREEN,161,LORONG 1 TOA PAYOH,310161,29298.5790167,34745.9645869,1.3305046551657547,103.8449870376437
PAN ISLAND EXPRESSWAY,TOA PAYOH GREEN,159,LORONG 1 TOA PAYOH,310159,29368.4667922,34770.8095165,1.3307293408383976,103.84561501948791
PAN ISLAND EXPRESSWAY,TOA PAYOH GREEN,158,LORONG 1 TOA PAYOH,310158,29308.1322885,34850.6031253,1.3314509686118194,103.84507288360639
PAN ISLAND EXPRESSWAY,TOA PAYOH GREEN,160,LORONG 1 TOA PAYOH,310160,29302.2536407,34794.5389195,1.330943944058033,103.84502005826215
PAN ISLAND EXPRESSWAY,KIM KEAT BEACON,265A,KIM KEAT AVENUE,311265,30947.9184974,34911.1782293,1.3319986734227587,103.8598072903192
PAN ISLAND EXPRESSWAY,KIM KEAT BEACON,267A,KIM KEAT AVENUE,311267,30885.3484307,34881.9568216,1.3317344114049126,103.85924506023902
PAN ISLAND EXPRESSWAY,GOLDEN CLOVER,196,KIM KEAT AVENUE,310196,30860.2175897,34834.4660525,1.3313049241353756,103.85901924104428
PAN ISLAND EXPRESSWAY,RESERVOIR RISE,708,BEDOK NORTH ROAD,470708,37570.162,35247.2322717,1.3350364574587337,103.91931196131777
PAN ISLAND EXPRESSWAY,EUNOS HEIGHTS,620,BEDOK RESERVOIR ROAD,470620,37392.1678528,35169.5875081,1.334334322264126,103.91771255928757
PAN ISLAND EXPRESSWAY,RESERVOIR RISE,707,BEDOK NORTH ROAD,470707,37567.5357379,35294.78394,1.3354664982309086,103.91928837780463
PAN ISLAND EXPRESSWAY,EUNOS HEIGHTS,619,BEDOK RESERVOIR ROAD,470619,37391.7493071,35071.8178042,1.3334501288106346,103.91770876830233
PAN ISLAND EXPRESSWAY,null,613B,BEDOK RESERVOIR ROAD,472613,37448.9044013,34998.5287548,1.3327873115851672,103.91822231613303
PAN ISLAND EXPRESSWAY,null,613A,BEDOK RESERVOIR ROAD,471613,37396.4331263,34974.4463968,1.3325695358184235,103.91775082505248
PAN ISLAND EXPRESSWAY,MULTI STOREY CAR PARK,613C,BEDOK RESERVOIR ROAD,473613,37377.9465012,35034.3146827,1.3331109685145268,103.91758473083026
PAN ISLAND EXPRESSWAY,BEDOK NORTH GREEN,542,BEDOK NORTH STREET 3,460542,37963.2556945,34763.9728567,1.3306659090847732,103.9228439724848
PAN ISLAND EXPRESSWAY,CHAI CHEE GARDENS,50,CHAI CHEE STREET,461050,37915.61071,34613.4127625,1.3293043141657728,103.9224158073285
PAN ISLAND EXPRESSWAY,BEDOK NORTH GREEN,540,BEDOK NORTH STREET 3,460540,37879.6366363,34815.256749,1.3311297292007318,103.92209262593109
PAN ISLAND EXPRESSWAY,CHAI CHEE GARDENS,54,CHAI CHEE STREET,460054,37769.74291,34632.6580545,1.329478408797235,103.92110511192145
PAN ISLAND EXPRESSWAY,null,115,POTONG PASIR AVENUE 1,350115,31281.69893,35494.0581748,1.3372699980605909,103.8628065583661
PAN ISLAND EXPRESSWAY,null,116,POTONG PASIR AVENUE 1,350116,31260.1946475,35444.9630209,1.3368260012868982,103.86261332459928
PAN ISLAND EXPRESSWAY,null,118,POTONG PASIR AVENUE 1,350118,31264.6955269,35296.2921331,1.3354814741890977,103.86265375167467
PAN ISLAND EXPRESSWAY,MULTI STOREY CAR PARK,761A,BEDOK RESERVOIR VIEW,471761,39254.3876324,35345.0114192,1.3359201566188894,103.93444571395426
PAN ISLAND EXPRESSWAY,LONGVALE,764,BEDOK RESERVOIR VIEW,470764,39360.6956015,35339.7199702,1.3358722629642927,103.93540094910892
PAN ISLAND EXPRESSWAY,LONGVALE,761,BEDOK RESERVOIR VIEW,470761,39209.5881713,35373.9599004,1.3361819726466562,103.93404317615229
PAN ISLAND EXPRESSWAY,LONGVALE,762,BEDOK RESERVOIR VIEW,470762,39241.2400072,35378.1538928,1.3362198898181752,103.93432758735578
PAN ISLAND EXPRESSWAY,null,319,TAMPINES STREET 33,520319,41697.1518193,36997.6738403,1.3508652063412285,103.95639606957693
PAN ISLAND EXPRESSWAY,null,296,TAMPINES STREET 22,520296,41595.429147,37011.2328679,1.350987875491852,103.95548203515872
PAN ISLAND EXPRESSWAY,null,318,TAMPINES STREET 33,520318,41661.4076309,37063.5453571,1.351460939877871,103.95607491604446
PAN ISLAND EXPRESSWAY,null,295,TAMPINES STREET 22,520295,41541.7362259,36988.2961227,1.3507804685565679,103.95499956100741
PAN ISLAND EXPRESSWAY,null,293,TAMPINES STREET 22,520293,41530.835605,36945.2389473,1.3503910805919794,103.9549015929003
PAN ISLAND EXPRESSWAY,null,317,TAMPINES STREET 33,520317,41752.9963703,37072.0741484,1.3515380290614625,103.95689790107124
PAN ISLAND EXPRESSWAY,null,135,SIMEI STREET 1,520135,41769.5113995,36684.9847744,1.34803733103334,103.95704612185254
PAN ISLAND EXPRESSWAY,null,138,SIMEI STREET 1,520138,41753.3133972,36594.3993883,1.347218118355562,103.95690053176507
PAN ISLAND EXPRESSWAY,null,348,TAMPINES STREET 33,520348,42472.9229055,37181.3124821,1.3525255992722645,103.96336693543145
PAN ISLAND EXPRESSWAY,null,347,TAMPINES STREET 33,520347,42444.748528,37109.9709051,1.3518804267356272,103.96311373701971
PAN ISLAND EXPRESSWAY,null,351,TAMPINES STREET 33,520351,42422.4248609,37213.3601628,1.35281545076824,103.96291319475004
PAN ISLAND EXPRESSWAY,MULTI STOREY CAR PARK,351A,TAMPINES STREET 33,521351,42411.7103276,37154.6561953,1.3522845595112922,103.96281688991357
PAN ISLAND EXPRESSWAY,null,345,TAMPINES STREET 33,520345,42350.500383,37114.2067883,1.3519187798588792,103.96226686157574
PAN ISLAND EXPRESSWAY,null,343,TAMPINES STREET 33,520343,42240.2129004,37114.1506714,1.3519183251095486,103.96127586073409
PAN ISLAND EXPRESSWAY,null,349,TAMPINES STREET 33,520349,42433.3900131,37279.8658846,1.3534168980011902,103.96301175535265
PAN ISLAND EXPRESSWAY,null,350,TAMPINES STREET 33,520350,42424.8731473,37322.9588671,1.3538066187104523,103.96293524672627
PAN ISLAND EXPRESSWAY,null,548,JURONG WEST STREET 42,640548,14955.0669407,37307.2686405,1.3536653557829894,103.71610153975173
PAN ISLAND EXPRESSWAY,null,549,JURONG WEST STREET 42,640549,14951.8561432,37224.1808156,1.3529139392446012,103.7160727248164
PAN ISLAND EXPRESSWAY,null,558,JURONG WEST STREET 42,640558,15093.3481312,37366.1826677,1.3541982123036225,103.71734405735631
PAN ISLAND EXPRESSWAY,null,556,JURONG WEST STREET 42,640556,15150.5975707,37302.476583,1.3536221030416253,103.71785850674097
PAN ISLAND EXPRESSWAY,null,559,JURONG WEST STREET 42,640559,15266.5764935,37407.9833889,1.3545763168354772,103.71890060515044
PAN ISLAND EXPRESSWAY,SPRING HAVEN @ JURONG,561,JURONG WEST STREET 42,640561,15339.1573327,37400.0758781,1.3545048351671576,103.7195527929926
PAN ISLAND EXPRESSWAY,SPRING HAVEN @ JURONG,561A,JURONG WEST STREET 42,641561,15361.6753202,37376.7738287,1.3542941096949506,103.71975514108593
PAN ISLAND EXPRESSWAY,TOH GUAN VIEW,275,TOH GUAN ROAD,600275,18501.0016107,35913.4884354,1.3410618565034176,103.74796443374755
PAN ISLAND EXPRESSWAY,TOH GUAN VIEW,280,TOH GUAN ROAD,600280,18426.4048935,35847.4789874,1.3404648675461117,103.74729415926136
PAN ISLAND EXPRESSWAY,TOH GUAN VIEW,276,TOH GUAN ROAD,600276,18444.161243,35902.288101,1.340960546790594,103.74745369318123
PAN ISLAND EXPRESSWAY,MULTI STOREY CAR PARK,274A,TOH GUAN ROAD,601274,18446.1582943,35969.0546421,1.3415643596379998,103.74747161681528
PAN ISLAND EXPRESSWAY,MULTI STOREY CAR PARK,282A,TOH GUAN ROAD,601282,18405.5987421,35807.2613424,1.3401011472359696,103.7471072165363
PAN ISLAND EXPRESSWAY,SKYLINE II @ BUKIT BATOK,296B,BUKIT BATOK STREET 22,652296,18433.3889281,36204.5195483,1.3436938141710013,103.74735680214403
PAN ISLAND EXPRESSWAY,SKYLINE II @ BUKIT BATOK,296A,BUKIT BATOK STREET 22,651296,18327.9299759,36248.7276335,1.3440935821835205,103.74640917637628
PAN ISLAND EXPRESSWAY,null,256,JURONG EAST STREET 24,600256,17421.3896679,36256.6886278,1.3441652730651599,103.7382633675043
PAN ISLAND EXPRESSWAY,HONG KAH EAST GARDEN,305,JURONG EAST STREET 32,600305,17084.9907218,36397.2753911,1.3454365676352222,103.73524057170076
PAN ISLAND EXPRESSWAY,HONG KAH EAST GARDEN,303,JURONG EAST STREET 32,600303,17127.4571872,36333.0897707,1.3448561119460716,103.73562218147701
PAN ISLAND EXPRESSWAY,NANYANG PEARL,846,JURONG WEST STREET 81,640846,12239.6440346,36393.2427271,1.3453979453471607,103.69170225786343
PAN ISLAND EXPRESSWAY,NANYANG PEARL,848,JURONG WEST STREET 81,640848,12274.7905514,36427.5551491,1.3457082721776081,103.69201805205061
PAN ISLAND EXPRESSWAY,null,948,JURONG WEST STREET 91,640948,12156.8881588,36283.8136749,1.3444082673987445,103.69095870520208
PAN ISLAND EXPRESSWAY,NANYANG PEARL,845,JURONG WEST STREET 81,640845,12237.6347853,36333.8183514,1.344860533003909,103.69168423457026
PAN ISLAND EXPRESSWAY,null,946,JURONG WEST STREET 91,640946,12100.4791401,36260.7987475,1.3442000994271108,103.69045184945048
PAN ISLAND EXPRESSWAY,NANYANG PEARL,844A,JURONG WEST STREET 81,641844,12323.5173742,36448.9386018,1.3459016814227611,103.69245588006656
PAN ISLAND EXPRESSWAY,TENTERAM PEAK,116,JALAN TENTERAM,320116,31106.9655527,34435.8476942,1.3276999370452631,103.86123636948065
PAN ISLAND EXPRESSWAY,TENTERAM PEAK,117,JALAN TENTERAM,320117,31153.3012048,34506.0969603,1.3283352416971104,103.86165272793812
PAN ISLAND EXPRESSWAY,TENTERAM PEAK,117A,JALAN TENTERAM,321117,31096.0622077,34494.8555522,1.3282335842714257,103.86113840291368
PAN ISLAND EXPRESSWAY,null,241,KIM KEAT LINK,310241,30499.3214023,34746.0511533,1.330505363016131,103.85577637898886
PAN ISLAND EXPRESSWAY,null,247,KIM KEAT LINK,310247,30442.6328588,34807.6846681,1.3310627592614992,103.8552670056852
PAN ISLAND EXPRESSWAY,null,246,KIM KEAT LINK,310246,30506.8765029,34776.510582,1.3307808266567398,103.8558442682847
TAMPINES EXPRESSWAY,null,367,TAMPINES STREET 34,520367,42185.9493975,37855.1270457,1.3586194607417024,103.96078862010384
TAMPINES EXPRESSWAY,null,369,TAMPINES STREET 34,520369,42126.5038342,37863.9367845,1.358699160979592,103.96025446784536
TAMPINES EXPRESSWAY,MULTI STOREY CAR PARK,497K,TAMPINES STREET 45,529497,42053.6694402,37992.1947019,1.359859111555424,103.9596000644315
TAMPINES EXPRESSWAY,null,497J,TAMPINES STREET 45,527497,42042.9800899,37926.407996,1.3592641665366627,103.95950398284216
TAMPINES EXPRESSWAY,null,149,PASIR RIS STREET 13,510149,42321.6923149,38179.2182427,1.3615503535243596,103.96200851225157
TAMPINES EXPRESSWAY,null,148,PASIR RIS STREET 13,510148,42329.4929494,38258.350708,1.3622659937430355,103.96207864399838
TAMPINES EXPRESSWAY,null,141,PASIR RIS STREET 11,510141,41957.4344744,38469.9848133,1.3641801099147108,103.95873555456326
TAMPINES EXPRESSWAY,TAMPINES GREENVINES,639,TAMPINES STREET 62,520639,40420.9785309,38620.3082422,1.3655402629516356,103.9449295415161
TAMPINES EXPRESSWAY,TAMPINES GREENVINES,640A,TAMPINES STREET 62,521640,40427.7591344,38643.6909861,1.3657517248929247,103.94499047954349
TAMPINES EXPRESSWAY,TAMPINES GREENVINES,639A,TAMPINES STREET 62,521639,40426.9361781,38543.3862478,1.3648446067065219,103.94498304288103
TAMPINES EXPRESSWAY,TAMPINES GREENVINES,640B,TAMPINES STREET 62,522640,40381.5155878,38622.0863652,1.3655563601701088,103.9445749412491
TAMPINES EXPRESSWAY,TAMPINES GREENVINES,641A,TAMPINES STREET 62,521641,40326.5600377,38698.0013438,1.366242929801223,103.94408116019984
TAMPINES EXPRESSWAY,TAMPINES GREENVINES,640,TAMPINES STREET 62,520640,40361.0083024,38683.2849593,1.3661098259452207,103.94439069494227
TAMPINES EXPRESSWAY,TAMPINES GREENVINES,641,TAMPINES STREET 62,520641,40334.5059888,38743.8019487,1.366657130034127,103.94415257890319
TAMPINES EXPRESSWAY,TAMPINES GREENVINES,641C,TAMPINES STREET 62,523641,40317.0568594,38779.6245312,1.366981103351264,103.94399580152844
TAMPINES EXPRESSWAY,COSTA RIS,526C,PASIR RIS STREET 51,513526,40680.9855658,38924.8490458,1.3682943055192907,103.94726600877594
TAMPINES EXPRESSWAY,COSTA RIS,526D,PASIR RIS STREET 51,514526,40681.8732955,38966.2041314,1.3686683050229032,103.94727400327962
TAMPINES EXPRESSWAY,COSTA RIS,525A,PASIR RIS STREET 51,511525,40684.5751368,39024.9844953,1.3691998914264933,103.94729830626346
TAMPINES EXPRESSWAY,COSTA RIS,527A,PASIR RIS STREET 51,511527,40717.4532498,38939.0739993,1.3684229349801271,103.94759370180076
TAMPINES EXPRESSWAY,null,761,PASIR RIS STREET 71,510761,39189.8357997,39788.1112524,1.3761019310466303,103.9338673370368
TAMPINES EXPRESSWAY,null,760,PASIR RIS STREET 71,510760,39153.3823113,39821.0911264,1.3764002026429352,103.93353978889454
TAMPINES EXPRESSWAY,null,758,PASIR RIS STREET 71,510758,39128.8663039,39867.9777466,1.3768242371213448,103.93331951271803
TAMPINES EXPRESSWAY,null,757A,PASIR RIS STREET 71,511757,39101.6430675,39914.0508542,1.3772409155022642,103.93307490976643
TAMPINES EXPRESSWAY,RIVERVALE GATEWAY,189C,RIVERVALE DRIVE,543189,35798.8606148,41922.0824986,1.3954018841939142,103.90339756103599
TAMPINES EXPRESSWAY,RIVERVALE GATEWAY,188D,RIVERVALE DRIVE,544188,35866.8580337,41872.448847,1.394952997222222,103.90400855836843
TAMPINES EXPRESSWAY,MULTI STOREY CAR PARK,188E,RIVERVALE DRIVE,545188,35928.8955353,41843.515984,1.3946913220868677,103.90456600653236
TAMPINES EXPRESSWAY,COMPASSVALE GREEN,299A,COMPASSVALE STREET,541299,35713.7514637,42014.8999668,1.396241314221565,103.90263281238771
TAMPINES EXPRESSWAY,COMPASSVALE GREEN,298B,COMPASSVALE STREET,542298,35667.148727,41935.3244388,1.3955216746305306,103.902214028744
TAMPINES EXPRESSWAY,RIVERVALE GATEWAY,190A,RIVERVALE DRIVE,541190,35729.514394,41886.8043766,1.3950828603542889,103.9027744208908
TAMPINES EXPRESSWAY,COMPASSVALE LODGE,295C,COMPASSVALE CRESCENT,543295,35432.3693604,42125.0566614,1.397237604748213,103.90010439816372
TAMPINES EXPRESSWAY,PUNGGOL WAVES,213B,PUNGGOL WALK,822213,35252.1093519,42510.0756146,1.4007196212973163,103.89848471369167
TAMPINES EXPRESSWAY,MATILDA EDGE,220,SUMANG LANE,820220,34860.2069144,42578.3518924,1.4013371829012318,103.89496316723978
TAMPINES EXPRESSWAY,MATILDA EDGE,220B,SUMANG LANE,822220,34911.1281963,42597.4665176,1.4015100364377522,103.89542074111607
TAMPINES EXPRESSWAY,MATILDA EDGE,220A,SUMANG LANE,821220,34822.7635117,42598.750092,1.401521665661334,103.89462671246567
TAMPINES EXPRESSWAY,MATILDA EDGE,220C,SUMANG LANE,823220,34975.8979585,42608.6662769,1.4016113073752976,103.89600275308031
TAMPINES EXPRESSWAY,MATILDA PORTICO,217D,SUMANG WALK,824217,34994.0821761,42657.1594612,1.402049857625898,103.89616616483994
